[{"name":"Restaurant du Palais Royal","url":"https://restaurant.michelin.fr/2a7qx35/restaurant-du-palais-royal-paris-01","nbStar":1,"postalCode":"75001","chef":"Philip Chronopoulos"},{"name":"La Tour des Vents","url":"https://restaurant.michelin.fr/28vws7k/la-tour-des-vents-monbazillac","nbStar":1,"postalCode":"24240","chef":"Damien Fagette"},{"name":"Le Jardin des Remparts","url":"https://restaurant.michelin.fr/28u6ql7/le-jardin-des-remparts-beaune","nbStar":1,"postalCode":"21200","chef":"Christophe Bocquillon"},{"name":"Les Fresques","url":"https://restaurant.michelin.fr/29gdnxp256n/les-fresques-evian-les-bains","nbStar":1,"postalCode":"74500","chef":"Patrice Vander"},{"name":"Frédéric Doucet","url":"https://restaurant.michelin.fr/295q5w8/frederic-doucet-charolles","nbStar":1,"postalCode":"71120","chef":"Frédéric Doucet"},{"name":"Fanny Rey & Jonathan Wahid","url":"https://restaurant.michelin.fr/389tiwsv/fanny-rey-jonathan-wahid-saint-remy-de-provence","nbStar":1,"postalCode":"13210","chef":"Fanny Rey"},{"name":"La Liégeoise","url":"https://restaurant.michelin.fr/2fa1zgi202/la-liegeoise-wimereux","nbStar":1,"postalCode":"62930","chef":"Benjamin Delpierre"},{"name":"Patrick Jeffroy","url":"https://restaurant.michelin.fr/2bm9rwc/patrick-jeffroy-carantec","nbStar":2,"postalCode":"29660","chef":"Patrick Jeffroy"},{"name":"Yoann Conte","url":"https://restaurant.michelin.fr/2fcm39b/yoann-conte-veyrier-du-lac","nbStar":2,"postalCode":"74290","chef":"Yoann Conte"},{"name":"Le Saint-Estève","url":"https://restaurant.michelin.fr/2x1lce26/le-saint-esteve-le-tholonet","nbStar":1,"postalCode":"13100","chef":"Mathias Dandine"},{"name":"Le Saint-James","url":"https://restaurant.michelin.fr/2bj8gr9/le-saint-james-bouliac","nbStar":1,"postalCode":"33270","chef":"Nicolas Magie"},{"name":"Auberge de l'Ill","url":"https://restaurant.michelin.fr/29nft26/auberge-de-lill-illhaeusern","nbStar":2,"postalCode":"68970","chef":"Marc Haeberlin"},{"name":"Le Clarence","url":"https://restaurant.michelin.fr/sntd30zx/le-clarence-paris-08","nbStar":2,"postalCode":"75008","chef":"Christophe Pelé"},{"name":"Hostellerie Bérard","url":"https://restaurant.michelin.fr/2bl33gu/hostellerie-berard-la-cadiere-dazur","nbStar":1,"postalCode":"83740","chef":"Jean-François Bérard"},{"name":"Le Chiberta","url":"https://restaurant.michelin.fr/2abl39j/le-chiberta-paris-08","nbStar":1,"postalCode":"75008","chef":"Stéphane Laruelle"},{"name":"Jean-Marc Pérochon","url":"https://restaurant.michelin.fr/2dyiess/jean-marc-perochon-bretignolles-sur-mer","nbStar":1,"postalCode":"85470","chef":"Perochon Jean Marc"},{"name":"Christophe Bacquié","url":"https://restaurant.michelin.fr/2bmu0gi/christophe-bacquie-le-castellet","nbStar":3,"postalCode":"83330","chef":"Christophe Bacquié"},{"name":"Assiette Champenoise","url":"https://restaurant.michelin.fr/2cliodi/assiette-champenoise-tinqueux","nbStar":3,"postalCode":"51430","chef":"Arnaud Lallement"},{"name":"Les Pêcheurs","url":"https://restaurant.michelin.fr/29ol879/les-pecheurs-antibes","nbStar":1,"postalCode":"06600","chef":"Nicolas Rondelli"},{"name":"Le Relais Bernard Loiseau","url":"https://restaurant.michelin.fr/2cur8yy/le-relais-bernard-loiseau-saulieu","nbStar":2,"postalCode":"21210","chef":"Patrick Bertron"},{"name":"L'Auberge des Glazicks","url":"https://restaurant.michelin.fr/2akhln2/lauberge-des-glazicks-plomodiern","nbStar":2,"postalCode":"29550","chef":"Olivier Bellin"},{"name":"Aux Pesked","url":"https://restaurant.michelin.fr/2aru9pt/aux-pesked-saint-brieuc","nbStar":1,"postalCode":"22000","chef":"Mathieu Aumont"},{"name":"Paul Bocuse","url":"https://restaurant.michelin.fr/29tbf1t/paul-bocuse-collonges-au-mont-dor","nbStar":3,"postalCode":"69660","chef":"Paul BOCUSE"},{"name":"Le Petit Nice","url":"https://restaurant.michelin.fr/2c76rmd/le-petit-nice-marseille-07","nbStar":3,"postalCode":"13007","chef":"Gérald Passédat"},{"name":"La Table de Franck Putelat","url":"https://restaurant.michelin.fr/2e06z2s/la-table-de-franck-putelat-carcassonne","nbStar":2,"postalCode":"11000","chef":"Franck Putelat"},{"name":"L'Oustau de Baumanière","url":"https://restaurant.michelin.fr/28tn79w/loustau-de-baumaniere-les-baux-de-provence","nbStar":2,"postalCode":"13520","chef":"Glenn Viel"},{"name":"Dominique Bouchet","url":"https://restaurant.michelin.fr/2doe0bh/dominique-bouchet-paris-08","nbStar":1,"postalCode":"75008","chef":"Dominique Bouchet"},{"name":"La Dame de Pic","url":"https://restaurant.michelin.fr/jgnpf8y/la-dame-de-pic-paris-01","nbStar":1,"postalCode":"75001","chef":"Anne-Sophie Pic"},{"name":"Les Fresques","url":"https://restaurant.michelin.fr/2ax5yy8/les-fresques-monestier","nbStar":1,"postalCode":"24240","chef":"Didier Casaguana"},{"name":"La Marelle","url":"https://restaurant.michelin.fr/28zbkc6/la-marelle-peronnas","nbStar":1,"postalCode":"01960","chef":"Didier Goiffon"},{"name":"Le Pressoir","url":"https://restaurant.michelin.fr/2b6sa1u/le-pressoir-saint-ave","nbStar":1,"postalCode":"56890","chef":"Vincent David"},{"name":"Le Violon d'Ingres","url":"https://restaurant.michelin.fr/2aa5u1w/le-violon-dingres-paris-07","nbStar":1,"postalCode":"75007","chef":"Christian Constant"},{"name":"Neige d'Été","url":"https://restaurant.michelin.fr/9fkib5i9/neige-dete-paris-15","nbStar":1,"postalCode":"75015","chef":"Hideki Nishi"},{"name":"Bruno","url":"https://restaurant.michelin.fr/29s5co3/bruno-lorgues","nbStar":1,"postalCode":"83510","chef":"Benjamin Bruno"},{"name":"Auberge du Vieux Puits","url":"https://restaurant.michelin.fr/29ib1yg/auberge-du-vieux-puits-fontjoncouse","nbStar":3,"postalCode":"11360","chef":"Gilles Goujon"},{"name":"Sur Mesure par Thierry Marx","url":"https://restaurant.michelin.fr/6f226za/sur-mesure-par-thierry-marx-paris-01","nbStar":2,"postalCode":"75001","chef":"Thierry Marx"},{"name":"Le Carmin","url":"https://restaurant.michelin.fr/8zb6c2d4/le-carmin-beaune","nbStar":1,"postalCode":"21200","chef":"Christophe Quéant"},{"name":"Le Moulin de la Gorce","url":"https://restaurant.michelin.fr/2awwemv/le-moulin-de-la-gorce-la-roche-labeille","nbStar":1,"postalCode":"87800","chef":"Pierre Bertranet"},{"name":"Maximin Hellio","url":"https://restaurant.michelin.fr/u945qtuv/maximin-hellio-deauville","nbStar":1,"postalCode":"14800","chef":"Maximin Hellio"},{"name":"Stéphane Derbord","url":"https://restaurant.michelin.fr/29dkmez/stephane-derbord-dijon","nbStar":1,"postalCode":"21000","chef":"Stéphane Derbord"},{"name":"Ô Flaveurs","url":"https://restaurant.michelin.fr/2dr6qsw/o-flaveurs-douvaine","nbStar":1,"postalCode":"74140","chef":"Jérôme Mamet"},{"name":"Le Cloître","url":"https://restaurant.michelin.fr/2ep5ghq/le-cloitre-mane","nbStar":1,"postalCode":"04300","chef":"Jérôme Roy"},{"name":"Loiseau rive Gauche","url":"https://restaurant.michelin.fr/2aaahmg/loiseau-rive-gauche-paris-07","nbStar":1,"postalCode":"75007","chef":"Maxime Laurenson"},{"name":"Le Coquillage","url":"https://restaurant.michelin.fr/291q1xd/le-coquillage-saint-meloir-des-ondes","nbStar":2,"postalCode":"35350","chef":"Hugo Roellinger"},{"name":"L'Auberge de la Pomme","url":"https://restaurant.michelin.fr/2al6a9i/lauberge-de-la-pomme-les-damps","nbStar":1,"postalCode":"27340","chef":"William Boquelet"},{"name":"Le Bénaton","url":"https://restaurant.michelin.fr/28u9h7z/le-benaton-beaune","nbStar":1,"postalCode":"21200","chef":"Keishi Sugimura"},{"name":"Ivan Vautier","url":"https://restaurant.michelin.fr/290z3mh/ivan-vautier-caen","nbStar":1,"postalCode":"14000","chef":"Ivan Vautier"},{"name":"La Table de Patrick Raingeard","url":"https://restaurant.michelin.fr/2e2m5rq/la-table-de-patrick-raingeard-eze-bord-de-mer","nbStar":1,"postalCode":"06360","chef":"Patrick  Raingeard"},{"name":"Loiseau des Vignes","url":"https://restaurant.michelin.fr/2ef8rpt/loiseau-des-vignes-beaune","nbStar":1,"postalCode":"21200","chef":"Mourad Haddouche"},{"name":"Assa","url":"https://restaurant.michelin.fr/3m0pjn8/assa-blois","nbStar":1,"postalCode":"41000","chef":"Fumiko et Anthony Maubert"},{"name":"Pierre Gagnaire","url":"https://restaurant.michelin.fr/2abhfav/pierre-gagnaire-paris-08","nbStar":3,"postalCode":"75008","chef":"Pierre GAGNAIRE"},{"name":"L'Aparté","url":"https://restaurant.michelin.fr/xay649ax/laparte-montrabe","nbStar":1,"postalCode":"31850","chef":"Jérémy Morin"},{"name":"Le Kléber","url":"https://restaurant.michelin.fr/29bkalt/le-kleber-crest","nbStar":1,"postalCode":"26400","chef":"Sébastien Bonnet"},{"name":"Ithurria","url":"https://restaurant.michelin.fr/2bbain5/ithurria-ainhoa","nbStar":1,"postalCode":"64250","chef":"Xavier Isabal"},{"name":"Relais de la Poste","url":"https://restaurant.michelin.fr/2c6dfrz/relais-de-la-poste-magescq","nbStar":2,"postalCode":"40140","chef":"Jean Coussau"},{"name":"Julien Binz","url":"https://restaurant.michelin.fr/yi79hbnh/julien-binz-ammerschwihr","nbStar":1,"postalCode":"68770","chef":"Le Chef Julien Binz"},{"name":"La Bastide de Moustiers","url":"https://restaurant.michelin.fr/2cbq46s/la-bastide-de-moustiers-moustiers-sainte-marie","nbStar":1,"postalCode":"04360","chef":"Frédéric Garnier"},{"name":"L'Atelier d'Edmond","url":"https://restaurant.michelin.fr/2e1ykis/latelier-dedmond-val-disere","nbStar":2,"postalCode":"73150","chef":"Benoit Vidal"},{"name":"Initial","url":"https://restaurant.michelin.fr/sd2y8ik/initial-caen","nbStar":1,"postalCode":"14000","chef":"Yohann Lemonnier"},{"name":"L'Ekrin by Laurent Azoulay","url":"https://restaurant.michelin.fr/9isyik39/lekrin-laurent-azoulay-meribel-mottaret","nbStar":1,"postalCode":"73550","chef":"Laurent Azoulay"},{"name":"Auberge La Pomme d'Api","url":"https://restaurant.michelin.fr/2aw36e7/auberge-la-pomme-dapi-saint-pol-de-leon","nbStar":1,"postalCode":"29250","chef":"Jérémie Le Calvez"},{"name":"Le Moulin du Roc","url":"https://restaurant.michelin.fr/2bk7w2q/le-moulin-du-roc-champagnac-de-belair","nbStar":1,"postalCode":"24530","chef":"Alain Gardillou"},{"name":"Chez Michèle","url":"https://restaurant.michelin.fr/29pia6z/chez-michele-languimberg","nbStar":1,"postalCode":"57810","chef":"Bruno Poiré"},{"name":"Alléno Paris au Pavillon Ledoyen","url":"https://restaurant.michelin.fr/2ab5qlx/alleno-paris-au-pavillon-ledoyen-paris-08","nbStar":3,"postalCode":"75008","chef":"Yannick Alléno"},{"name":"La Bonne Étape","url":"https://restaurant.michelin.fr/2bp5jf6/la-bonne-etape-chateau-arnoux","nbStar":1,"postalCode":"04160","chef":"Jany Gleize"},{"name":"Le M","url":"https://restaurant.michelin.fr/2epv4gf/le-m-brest","nbStar":1,"postalCode":"29200","chef":"Philippe Le Bigot"},{"name":"1920","url":"https://restaurant.michelin.fr/3409276/1920-megeve","nbStar":2,"postalCode":"74120","chef":"Julien Gatillon"},{"name":"Le Baudelaire","url":"https://restaurant.michelin.fr/2fdc0eg/le-baudelaire-paris-01","nbStar":1,"postalCode":"75001","chef":"Guillaume Goupil"},{"name":"Agapé","url":"https://restaurant.michelin.fr/2eo1t6h/agape-paris-17","nbStar":1,"postalCode":"75017","chef":"Benoit Dumas"},{"name":"Les Morainières","url":"https://restaurant.michelin.fr/2dd2ann/les-morainieres-jongieux","nbStar":2,"postalCode":"73170","chef":"Michaël Arnoult"},{"name":"Le Brittany","url":"https://restaurant.michelin.fr/2cnbixn/le-brittany-roscoff","nbStar":1,"postalCode":"29681","chef":"Loic Le Bail"},{"name":"Faventia","url":"https://restaurant.michelin.fr/2dix4nq137/faventia-tourrettes","nbStar":1,"postalCode":"83440","chef":"Philippe  Jourdin"},{"name":"Domaine d'Auriac","url":"https://restaurant.michelin.fr/2bmf006/domaine-dauriac-carcassonne","nbStar":1,"postalCode":"11000","chef":"Philippe Deschamps"},{"name":"Le Moulin de Léré","url":"https://restaurant.michelin.fr/bca0zrw3/le-moulin-de-lere-vailly","nbStar":1,"postalCode":"74470","chef":"Frédéric Molina"},{"name":"Dyades au Domaine des Étangs","url":"https://restaurant.michelin.fr/2f0stuh/dyades-au-domaine-des-etangs-massignac","nbStar":1,"postalCode":"16310","chef":"Loïc Lecoin"},{"name":"Le Clos des Sens","url":"https://restaurant.michelin.fr/28pf13h/le-clos-des-sens-annecy-le-vieux","nbStar":3,"postalCode":"74940","chef":"Laurent Petit"},{"name":"Le Prince Noir - Vivien Durand","url":"https://restaurant.michelin.fr/4g00u3j8/le-prince-noir-vivien-durand-lormont","nbStar":1,"postalCode":"33310","chef":"Vivien Durand"},{"name":"Auberge des Templiers","url":"https://restaurant.michelin.fr/2bicgcl/auberge-des-templiers-les-bezards","nbStar":1,"postalCode":"45290","chef":"Martin Simonart"},{"name":"Hostellerie la Montagne","url":"https://restaurant.michelin.fr/298i34w/hostellerie-la-montagne-colombey-les-deux-eglises","nbStar":1,"postalCode":"52330","chef":"Jean-Baptiste Natali"},{"name":"Anne de Bretagne","url":"https://restaurant.michelin.fr/2ciults/anne-de-bretagne-la-plaine-sur-mer","nbStar":2,"postalCode":"44770","chef":"Mathieu Guibert"},{"name":"Le Refuge des Gourmets","url":"https://restaurant.michelin.fr/29uv8a7/le-refuge-des-gourmets-machilly","nbStar":1,"postalCode":"74140","chef":"Jean-Marie et Hubert Chanove"},{"name":"La Grande Cascade","url":"https://restaurant.michelin.fr/2af5lql/la-grande-cascade-paris-16","nbStar":1,"postalCode":"75016","chef":"Frédéric Robert"},{"name":"Au Vieux Couvent","url":"https://restaurant.michelin.fr/2aogs9u/au-vieux-couvent-rhinau","nbStar":1,"postalCode":"67860","chef":"Alexis Albrecht"},{"name":"La Coopérative","url":"https://restaurant.michelin.fr/3w3putu/la-cooperative-belesta","nbStar":1,"postalCode":"66720","chef":"Laurent Lemal"},{"name":"1217","url":"https://restaurant.michelin.fr/2bfuk4c/1217-bagnols","nbStar":1,"postalCode":"69620","chef":"Jean-Alexandre Ouaratta"},{"name":"Le Corot","url":"https://restaurant.michelin.fr/2aiulws5/le-corot-ville-davray","nbStar":1,"postalCode":"92410","chef":"Rémi Chambard"},{"name":"Il Carpaccio","url":"https://restaurant.michelin.fr/2fdi6av208/il-carpaccio-paris-08","nbStar":1,"postalCode":"75008","chef":"Michele Fortunato"},{"name":"Greuze","url":"https://restaurant.michelin.fr/3uonmfw/greuze-tournus","nbStar":1,"postalCode":"71700","chef":"Yohann Chapuis"},{"name":"Le Grand Cerf","url":"https://restaurant.michelin.fr/2anw751/le-grand-cerf-montchenot","nbStar":1,"postalCode":"51500","chef":"Dominique Giraudeau et Pascal Champion"},{"name":"Cyril Attrazic","url":"https://restaurant.michelin.fr/28rd58x/cyril-attrazic-aumont-aubrac","nbStar":1,"postalCode":"48130","chef":"Cyril Attrazic"},{"name":"La Madeleine","url":"https://restaurant.michelin.fr/2azofoh/la-madeleine-sens","nbStar":1,"postalCode":"89100","chef":"Patrick Gauthier"},{"name":"Pont de l'Ouysse","url":"https://restaurant.michelin.fr/29p8ja1/pont-de-louysse-lacave","nbStar":1,"postalCode":"46200","chef":"Daniel et Stéphane Chambon"},{"name":"Les Hautes Roches","url":"https://restaurant.michelin.fr/2cyg6yb/les-hautes-roches-rochecorbon","nbStar":1,"postalCode":"37210","chef":"Didier Edon"},{"name":"Le Taillevent","url":"https://restaurant.michelin.fr/2ab9sgk/le-taillevent-paris-08","nbStar":1,"postalCode":"75008","chef":"David  Bizet"},{"name":"Les Oliviers","url":"https://restaurant.michelin.fr/2e1on31/les-oliviers-bandol","nbStar":1,"postalCode":"83150","chef":"Jérémy Czaplicki"},{"name":"Le Jardin de Benjamin","url":"https://restaurant.michelin.fr/xhr5bt96/le-jardin-de-benjamin-lorgues","nbStar":1,"postalCode":"83510","chef":"Benjamin Collombat"},{"name":"Auberge Tiegezh","url":"https://restaurant.michelin.fr/34milgg2/auberge-tiegezh-guer","nbStar":1,"postalCode":"56380","chef":"Baptiste Denieul"},{"name":"Le Jasmin","url":"https://restaurant.michelin.fr/u6v6rb42/le-jasmin-saint-sylvestre-sur-lot","nbStar":1,"postalCode":"47140","chef":"Xavier Lesueur"},{"name":"Nomicos","url":"https://restaurant.michelin.fr/2fdwgd3/nomicos-paris-16","nbStar":1,"postalCode":"75016","chef":"Jean-Louis Nomicos"},{"name":"Le Gabriel","url":"https://restaurant.michelin.fr/9sqrw32m/le-gabriel-paris-08","nbStar":2,"postalCode":"75008","chef":"Jérôme Banctel"},{"name":"L'Ambroisie","url":"https://restaurant.michelin.fr/2a8d13e/lambroisie-paris-04","nbStar":3,"postalCode":"75004","chef":"Bernard Pacaud"},{"name":"Villa René Lalique","url":"https://restaurant.michelin.fr/t645yf86/villa-rene-lalique-wingen-sur-moder","nbStar":2,"postalCode":"67290","chef":"Jean-Georges Klein et  Paul Stradner"},{"name":"La Rotonde","url":"https://restaurant.michelin.fr/29uqy46/la-rotonde-la-tour-de-salvagny","nbStar":1,"postalCode":"69890","chef":"Jean-François Malle"},{"name":"Virtus","url":"https://restaurant.michelin.fr/3ez7apxd/virtus-paris-12","nbStar":1,"postalCode":"75012","chef":"Chiho Kanzaki"},{"name":"Le Quinzième - Cyril Lignac","url":"https://restaurant.michelin.fr/2dtfbbi/le-quinzieme-cyril-lignac-paris-15","nbStar":1,"postalCode":"75015","chef":"Cyril Lignac"},{"name":"La Grand'Vigne","url":"https://restaurant.michelin.fr/28yhuxy/la-grandvigne-martillac","nbStar":2,"postalCode":"33650","chef":"Nicolas Masse"},{"name":"Château de Sully","url":"https://restaurant.michelin.fr/2bgynqb/chateau-de-sully-sully","nbStar":1,"postalCode":"14400","chef":"Nicolas Fages"},{"name":"Maison Kieny","url":"https://restaurant.michelin.fr/2a22p1u/maison-kieny-riedisheim","nbStar":1,"postalCode":"68400","chef":"Jean-Marc KIENY"},{"name":"Hostellerie de l'Abbaye de la Celle","url":"https://restaurant.michelin.fr/2bn8o1t/hostellerie-de-labbaye-de-la-celle-la-celle","nbStar":1,"postalCode":"83170","chef":"Nicolas Pierantoni"},{"name":"Domaine des Séquoias","url":"https://restaurant.michelin.fr/28zo6i3/domaine-des-sequoias-ruy","nbStar":1,"postalCode":"38300","chef":"Eric Jambon"},{"name":"Helen","url":"https://restaurant.michelin.fr/3o59i9b/helen-paris-08","nbStar":1,"postalCode":"75008","chef":"Sébastien Carmona Porto"},{"name":"L'Amaryllis","url":"https://restaurant.michelin.fr/294rtmv/lamaryllis-saint-remy","nbStar":1,"postalCode":"71100","chef":"Cédric Burtin"},{"name":"L'Auberge Basque","url":"https://restaurant.michelin.fr/2efx4u4/lauberge-basque-saint-pee-sur-nivelle","nbStar":1,"postalCode":"64310","chef":"Cédric Béchade"},{"name":"L'Almandin","url":"https://restaurant.michelin.fr/2as8r3a/lalmandin-saint-cyprien-plage","nbStar":1,"postalCode":"66750","chef":"Christophe Schmitt"},{"name":"La Table de Castigno","url":"https://restaurant.michelin.fr/xh15qqss/la-table-de-castigno-assignan","nbStar":1,"postalCode":"34360","chef":"Ruben & Pieter de Maesschalck"},{"name":"Le Jardin des Plumes","url":"https://restaurant.michelin.fr/omm63qr/le-jardin-des-plumes-giverny","nbStar":1,"postalCode":"27620","chef":"David Gallienne"},{"name":"Le St-Placide","url":"https://restaurant.michelin.fr/2av98t5/le-st-placide-saint-malo","nbStar":1,"postalCode":"35400","chef":"Luc Mobihan"},{"name":"Le Chantecler","url":"https://restaurant.michelin.fr/2a4echf50/le-chantecler-nice","nbStar":2,"postalCode":"06000","chef":"Virginie Basselot"},{"name":"La Table des Merville","url":"https://restaurant.michelin.fr/2b3ktxc/la-table-des-merville-castanet-tolosan","nbStar":1,"postalCode":"31320","chef":"Thierry Merville"},{"name":"Pic","url":"https://restaurant.michelin.fr/2d0hddd/pic-valence","nbStar":3,"postalCode":"26000","chef":"Anne-Sophie Pic"},{"name":"Le Vivarais","url":"https://restaurant.michelin.fr/2fay1do/le-vivarais-vals-les-bains","nbStar":1,"postalCode":"07600","chef":"Stéphane Polly"},{"name":"L'Odas","url":"https://restaurant.michelin.fr/33tyod0j/lodas-rouen","nbStar":1,"postalCode":"76000","chef":"Olivier Da Silva"},{"name":"Le Meurice Alain Ducasse","url":"https://restaurant.michelin.fr/2a7d9c1/le-meurice-alain-ducasse-paris-01","nbStar":2,"postalCode":"75001","chef":"Jocelyn Herland"},{"name":"Les Bacchanales","url":"https://restaurant.michelin.fr/2en7eas/les-bacchanales-vence","nbStar":1,"postalCode":"06140","chef":"Christophe Dufau"},{"name":"Auberge du Cheval Blanc","url":"https://restaurant.michelin.fr/29qf1y7/auberge-du-cheval-blanc-lembach","nbStar":2,"postalCode":"67510","chef":"Pascal Bastian"},{"name":"Domaine des Hauts de Loire","url":"https://restaurant.michelin.fr/2cedaza/domaine-des-hauts-de-loire-onzain","nbStar":2,"postalCode":"41150","chef":"Rémy Giraud"},{"name":"Radio","url":"https://restaurant.michelin.fr/2bqajf6/radio-chamalieres","nbStar":1,"postalCode":"63400","chef":"Wilfrid Chaplain"},{"name":"Mirazur","url":"https://restaurant.michelin.fr/2d440f7/mirazur-menton","nbStar":3,"postalCode":"06500","chef":"Mauro Colagreco"},{"name":"L'Arcane","url":"https://restaurant.michelin.fr/vx40rloc/larcane-paris-18","nbStar":1,"postalCode":"75018","chef":"Laurent Magnin"},{"name":"Georges Blanc","url":"https://restaurant.michelin.fr/2d3ergs/georges-blanc-vonnas","nbStar":3,"postalCode":"01540","chef":"Georges BLANC"},{"name":"Le Carré d'Alethius","url":"https://restaurant.michelin.fr/2fa4jx5/le-carre-dalethius-charmes-sur-rhone","nbStar":1,"postalCode":"07800","chef":"Olivier Samin"},{"name":"La Côte Saint-Jacques","url":"https://restaurant.michelin.fr/2c2ma30/la-cote-saint-jacques-joigny","nbStar":2,"postalCode":"89300","chef":"Jean-Michel Lorain"},{"name":"Le Fanal","url":"https://restaurant.michelin.fr/yw26sgs/le-fanal-banyuls-sur-mer","nbStar":1,"postalCode":"66650","chef":"Pascal Borrell"},{"name":"La Licorne Royale","url":"https://restaurant.michelin.fr/2ehwc2a/la-licorne-royale-lyons-la-foret","nbStar":1,"postalCode":"27480","chef":"Christophe Poirier"},{"name":"Guy Savoy","url":"https://restaurant.michelin.fr/2afciv4/guy-savoy-paris-06","nbStar":3,"postalCode":"75006","chef":"Guy SAVOY"},{"name":"Lucas Carton","url":"https://restaurant.michelin.fr/2abav0l/lucas-carton-paris-08","nbStar":1,"postalCode":"75008","chef":"Julien Dumas"},{"name":"1131","url":"https://restaurant.michelin.fr/2e4epe8/1131-la-bussiere-sur-ouche","nbStar":1,"postalCode":"21360","chef":"Guillaume Royer"},{"name":"Les Rosiers","url":"https://restaurant.michelin.fr/2epi2a4/les-rosiers-biarritz","nbStar":1,"postalCode":"64200","chef":"Andrée et Stéphane Rosier"},{"name":"Le Pergolèse","url":"https://restaurant.michelin.fr/2aeinde/le-pergolese-paris-16","nbStar":1,"postalCode":"75116","chef":"Stéphane Gaborieau"},{"name":"Villa Archange","url":"https://restaurant.michelin.fr/2f4ok2n/villa-archange-le-cannet","nbStar":2,"postalCode":"06110","chef":"Bruno Oger"},{"name":"Loiseau des Ducs","url":"https://restaurant.michelin.fr/2jd4ivca/loiseau-des-ducs-dijon","nbStar":1,"postalCode":"21000","chef":"Louis-Philippe Vigilant"},{"name":"Raphaël Vionnet","url":"https://restaurant.michelin.fr/6pyhps6h/raphael-vionnet-thonon-les-bains","nbStar":1,"postalCode":"74200","chef":"Raphaël Vionnet"},{"name":"Shang Palace","url":"https://restaurant.michelin.fr/2fcezsf205/shang-palace-paris-16","nbStar":1,"postalCode":"75016","chef":"Samuel Lee"},{"name":"Château de Vault de Lugny","url":"https://restaurant.michelin.fr/2bezvvp/chateau-de-vault-de-lugny-vault-de-lugny","nbStar":1,"postalCode":"89200","chef":"Le chef Franco Bowanee et Karina Laval, chef pâtissière."},{"name":"Le Haut-Allier","url":"https://restaurant.michelin.fr/2bc2prd/le-haut-allier-le-pont-dalleyras","nbStar":1,"postalCode":"43580","chef":"Philippe Brun"},{"name":"Auguste","url":"https://restaurant.michelin.fr/2dof8zp/auguste-paris-07","nbStar":1,"postalCode":"75007","chef":"Gaël Orieux"},{"name":"Château de Pray","url":"https://restaurant.michelin.fr/2bcbfo0/chateau-de-pray-charge","nbStar":1,"postalCode":"37400","chef":"Arnaud Philippon"},{"name":"Jérôme Brochot","url":"https://restaurant.michelin.fr/29zgkr3/jerome-brochot-montceau-les-mines","nbStar":1,"postalCode":"71300","chef":"Jérôme Brochot"},{"name":"La Scène Thélème","url":"https://restaurant.michelin.fr/ygx47dyb/la-scene-theleme-paris-17","nbStar":1,"postalCode":"75017","chef":"Julien Rocheteau"},{"name":"Hostellerie Jérôme","url":"https://restaurant.michelin.fr/2b5e0ez/hostellerie-jerome-la-turbie","nbStar":2,"postalCode":"06320","chef":"Bruno Cirino"},{"name":"Les Explorateurs","url":"https://restaurant.michelin.fr/ui89zrwk/les-explorateurs-val-thorens","nbStar":1,"postalCode":"73440","chef":"Josselin Jeanblanc"},{"name":"L'Arôme","url":"https://restaurant.michelin.fr/2e8vcj7/larome-paris-08","nbStar":1,"postalCode":"75008","chef":"Thomas Boullault"},{"name":"Auberge de l'Île Barbe","url":"https://restaurant.michelin.fr/29tj1pj/auberge-de-lile-barbe-lyon-09","nbStar":1,"postalCode":"69009","chef":"Jean-Christophe Ansanay-Alex"},{"name":"Thierry Schwartz - Le Restaurant","url":"https://restaurant.michelin.fr/2a619xs/thierry-schwartz-le-restaurant-obernai","nbStar":1,"postalCode":"67210","chef":"Thierry Schwartz"},{"name":"Troisgros - Le Bois sans Feuilles","url":"https://restaurant.michelin.fr/2cm53gy/troisgros-le-bois-sans-feuilles-ouches","nbStar":3,"postalCode":"42155","chef":"Michel et César Troisgros"},{"name":"Chapelle Saint-Martin","url":"https://restaurant.michelin.fr/2c4rgah/chapelle-saint-martin-nieul","nbStar":1,"postalCode":"87510","chef":"Gilles Dudognon"},{"name":"Le Moulin de l'Abbaye","url":"https://restaurant.michelin.fr/2bk4rlv/le-moulin-de-labbaye-brantome-en-perigord","nbStar":1,"postalCode":"24310","chef":"Jean-Michel Bardet"},{"name":"William Frachot","url":"https://restaurant.michelin.fr/2buprmi/william-frachot-dijon","nbStar":2,"postalCode":"21000","chef":"William Frachot"},{"name":"Régis et Jacques Marcon","url":"https://restaurant.michelin.fr/2dntkxh/regis-et-jacques-marcon-saint-bonnet-le-froid","nbStar":3,"postalCode":"43290","chef":"Régis et  Jacques Marcon"},{"name":"Auberge de la Tour","url":"https://restaurant.michelin.fr/aewyhv0/auberge-de-la-tour-marcoles","nbStar":1,"postalCode":"15220","chef":"Renaud Darmanin"},{"name":"Le Quincangrogne","url":"https://restaurant.michelin.fr/u1pjp7ux/le-quincangrogne-dampmart","nbStar":1,"postalCode":"77400","chef":"Franck Charpentier"},{"name":"Le Parc Les Crayères","url":"https://restaurant.michelin.fr/2clh5yg/le-parc-les-crayeres-reims","nbStar":2,"postalCode":"51100","chef":"Philippe Mille"},{"name":"G.a. au Manoir de Rétival","url":"https://restaurant.michelin.fr/9rnckmj/ga-au-manoir-de-retival-caudebec-en-caux","nbStar":1,"postalCode":"76490","chef":"David Goerne"},{"name":"Ed.Em","url":"https://restaurant.michelin.fr/295xqfd/edem-chassagne-montrachet","nbStar":1,"postalCode":"21190","chef":"Edouard Mignot"},{"name":"Ô Saveurs","url":"https://restaurant.michelin.fr/2b3jb0y/o-saveurs-rouffiac-tolosan","nbStar":1,"postalCode":"31180","chef":"David Biasibetti"},{"name":"Hostellerie Les Gorges de Pennafort","url":"https://restaurant.michelin.fr/2blmwvy/hostellerie-les-gorges-de-pennafort-callas","nbStar":1,"postalCode":"83830","chef":"Philippe  Da Silva"},{"name":"La Table de La Butte","url":"https://restaurant.michelin.fr/2cj2itx/la-table-de-la-butte-plouider","nbStar":1,"postalCode":"29260","chef":"Nicolas Conraux"},{"name":"JAN","url":"https://restaurant.michelin.fr/38z104i7/jan-nice","nbStar":1,"postalCode":"06000","chef":"Jan Hendrik van der Westhuizen"},{"name":"La Mare aux Oiseaux","url":"https://restaurant.michelin.fr/2atvlv0/la-mare-aux-oiseaux-saint-joachim","nbStar":1,"postalCode":"44720","chef":"Eric Guérin"},{"name":"L'Abeille","url":"https://restaurant.michelin.fr/2fcezsf/labeille-paris-16","nbStar":2,"postalCode":"75016","chef":"Christophe Moret"},{"name":"Le Georges","url":"https://restaurant.michelin.fr/2boyz17/le-georges-chartres","nbStar":1,"postalCode":"28000","chef":"Thomas Parnaud"},{"name":"Auberge à la Bonne Idée","url":"https://restaurant.michelin.fr/2ak8isu/auberge-la-bonne-idee-saint-jean-aux-bois","nbStar":1,"postalCode":"60350","chef":"Yves Giustiniani"},{"name":"Xavier Mathieu","url":"https://restaurant.michelin.fr/2c2u7lh/xavier-mathieu-joucas","nbStar":1,"postalCode":"84220","chef":"Xavier Mathieu"},{"name":"La Passagère","url":"https://restaurant.michelin.fr/29odhbw/la-passagere-juan-les-pins","nbStar":1,"postalCode":"06160","chef":"Aurélien Véquaud"},{"name":"La Chassagnette","url":"https://restaurant.michelin.fr/28qr6q2/la-chassagnette-arles","nbStar":1,"postalCode":"13200","chef":"Armand Arnal"},{"name":"Étude","url":"https://restaurant.michelin.fr/3g8qf775/etude-paris-16","nbStar":1,"postalCode":"75116","chef":"Keisuke Yamagishi"},{"name":"Maison Chabran - La Grande Table","url":"https://restaurant.michelin.fr/2d0la2d/maison-chabran-la-grande-table-pont-de-lisere","nbStar":1,"postalCode":"26600","chef":"Sandrine Dupin"},{"name":"Têtedoie","url":"https://restaurant.michelin.fr/29tfnmd288/tetedoie-lyon-05","nbStar":1,"postalCode":"69005","chef":"Christian Têtedoie"},{"name":"Mère Brazier","url":"https://restaurant.michelin.fr/2et3r6g/mere-brazier-lyon","nbStar":2,"postalCode":"69001","chef":"Mathieu Viannay"},{"name":"Domaine de Rochevilaine","url":"https://restaurant.michelin.fr/2bij0t1/domaine-de-rochevilaine-billiers","nbStar":1,"postalCode":"56190","chef":"Maxime Nouail"},{"name":"Alcyone","url":"https://restaurant.michelin.fr/3f9eksg5n/alcyone-marseille-02","nbStar":1,"postalCode":"13002","chef":"Lionel Levy"},{"name":"La Tour d'Argent","url":"https://restaurant.michelin.fr/2a8xf2a/la-tour-dargent-paris-05","nbStar":1,"postalCode":"75005","chef":"Philippe LABBÉ"},{"name":"L'Épuisette","url":"https://restaurant.michelin.fr/29w1hx9/lepuisette-marseille-07","nbStar":1,"postalCode":"13007","chef":"Guillaume Sourrieu"},{"name":"Cobéa","url":"https://restaurant.michelin.fr/2adr3mu/cobea-paris-14","nbStar":1,"postalCode":"75014","chef":"Philippe Bélissent"},{"name":"L'Escarbille","url":"https://restaurant.michelin.fr/2dtzs6c/lescarbille-meudon","nbStar":1,"postalCode":"92190","chef":"Régis Douysset"},{"name":"Auberge Frankenbourg","url":"https://restaurant.michelin.fr/29qv5p8/auberge-frankenbourg-la-vancelle","nbStar":1,"postalCode":"67730","chef":"Sébastien Buecher"},{"name":"Une Table au Sud","url":"https://restaurant.michelin.fr/29w4kky/une-table-au-sud-marseille-02","nbStar":1,"postalCode":"13002","chef":"Ludovic Turac"},{"name":"Les Terrasses de Lyon","url":"https://restaurant.michelin.fr/29t2ib7/les-terrasses-de-lyon-lyon-05","nbStar":1,"postalCode":"69005","chef":"David Delsart"},{"name":"La Nouvelle Auberge","url":"https://restaurant.michelin.fr/2a2adlj/la-nouvelle-auberge-wihr-au-val","nbStar":1,"postalCode":"68230","chef":"Bernard Leray"},{"name":"La Signoria","url":"https://restaurant.michelin.fr/2bs90l6/la-signoria-calvi","nbStar":1,"postalCode":"20260","chef":"Alexandre Fabris"},{"name":"La Chaumière","url":"https://restaurant.michelin.fr/2buz227/la-chaumiere-dole","nbStar":1,"postalCode":"39100","chef":"Joël Césari"},{"name":"Maison Decoret","url":"https://restaurant.michelin.fr/2b7zqic/maison-decoret-vichy","nbStar":1,"postalCode":"03200","chef":"Jacques Decoret"},{"name":"Château d'Adoménil","url":"https://restaurant.michelin.fr/2c5ztru/chateau-dadomenil-luneville","nbStar":1,"postalCode":"54300","chef":"Cyril Leclerc"},{"name":"Le Strasbourg","url":"https://restaurant.michelin.fr/28x69qn/le-strasbourg-bitche","nbStar":1,"postalCode":"57230","chef":"Lutz Janisch"},{"name":"Ritz Paris - Les Jardins de l'Espadon","url":"https://restaurant.michelin.fr/2a7bw8d/ritz-paris-les-jardins-de-lespadon-paris-01","nbStar":1,"postalCode":"75001","chef":"Nicolas Sale"},{"name":"Sylvestre","url":"https://restaurant.michelin.fr/2fe7j1g/sylvestre-paris-07","nbStar":2,"postalCode":"75007","chef":"Sylvestre Wahid"},{"name":"Maison Lameloise","url":"https://restaurant.michelin.fr/2bnef6m/maison-lameloise-chagny","nbStar":3,"postalCode":"71150","chef":"Eric Pras"},{"name":"Ritz Paris - La Table de l'Espadon","url":"https://restaurant.michelin.fr/yhoi9vry/ritz-paris-la-table-de-lespadon-paris-01","nbStar":2,"postalCode":"75001","chef":"Nicolas Sale"},{"name":"Le Gindreau","url":"https://restaurant.michelin.fr/2avrk5m/le-gindreau-saint-medard","nbStar":2,"postalCode":"46150","chef":"Pascal Bardet"},{"name":"Auberge de Clochemerle","url":"https://restaurant.michelin.fr/2dckc0s/auberge-de-clochemerle-vaux-en-beaujolais","nbStar":1,"postalCode":"69460","chef":"Romain Barthe"},{"name":"Aigue Marine","url":"https://restaurant.michelin.fr/2cz1lgu/aigue-marine-treguier","nbStar":1,"postalCode":"22220","chef":"LAISNEY Stanislas"},{"name":"Atmosphères","url":"https://restaurant.michelin.fr/28zmco9/atmospheres-le-bourget-du-lac","nbStar":1,"postalCode":"73370","chef":"Alain Périllat-Mercerot"},{"name":"La Galinette","url":"https://restaurant.michelin.fr/2ajskia/la-galinette-perpignan","nbStar":1,"postalCode":"66000","chef":"Christophe Comes"},{"name":"Alan Geaam","url":"https://restaurant.michelin.fr/3045466/alan-geaam-paris-16","nbStar":1,"postalCode":"75016","chef":"Alan Geaam"},{"name":"Maison Jeunet","url":"https://restaurant.michelin.fr/28pylpu/maison-jeunet-arbois","nbStar":2,"postalCode":"39600","chef":"Steven Naessens"},{"name":"Thierry Drapeau","url":"https://restaurant.michelin.fr/2dnrb62/thierry-drapeau-saint-sulpice-le-verdon","nbStar":1,"postalCode":"85260","chef":"Thierry Drapeau"},{"name":"L'Amphitryon","url":"https://restaurant.michelin.fr/2b3pf5k/lamphitryon-colomiers","nbStar":1,"postalCode":"31770","chef":"Yannick Delpech"},{"name":"L'Atelier de Jean-Luc Rabanel","url":"https://restaurant.michelin.fr/2e06dui/latelier-de-jean-luc-rabanel-arles","nbStar":2,"postalCode":"13200","chef":"Jean-Luc Rabanel"},{"name":"L'Impertinent","url":"https://restaurant.michelin.fr/h2j2em3/limpertinent-biarritz","nbStar":1,"postalCode":"64200","chef":"Fabian Feldmann"},{"name":"En Marge","url":"https://restaurant.michelin.fr/q8lel2a/en-marge-aureville","nbStar":1,"postalCode":"31320","chef":"Frank Renimel"},{"name":"La Matelote","url":"https://restaurant.michelin.fr/28yvb9u/la-matelote-boulogne-sur-mer","nbStar":1,"postalCode":"62200","chef":"Tony Lestienne"},{"name":"Le Farçon","url":"https://restaurant.michelin.fr/2dczscn/le-farcon-la-tania","nbStar":1,"postalCode":"73125","chef":"Julien Machet"},{"name":"Kasbür","url":"https://restaurant.michelin.fr/2az3rad/kasbur-monswiller","nbStar":1,"postalCode":"67700","chef":"Yves Kieffer"},{"name":"La Mirande","url":"https://restaurant.michelin.fr/2bf3czu/la-mirande-avignon","nbStar":1,"postalCode":"84000","chef":"Florent Pietravalle"},{"name":"Le Hittau","url":"https://restaurant.michelin.fr/2d9288s/le-hittau-saint-vincent-de-tyrosse","nbStar":1,"postalCode":"40230","chef":"Yannick Duc"},{"name":"Le Pressoir d'Argent - Gordon Ramsay","url":"https://restaurant.michelin.fr/2epcrm9/le-pressoir-dargent-gordon-ramsay-bordeaux","nbStar":2,"postalCode":"33000","chef":"Gordon Ramsay et le Chef Exécutif Gilad Peled"},{"name":"Manoir de la Boulaie","url":"https://restaurant.michelin.fr/2a3ey4n/manoir-de-la-boulaie-haute-goulaine","nbStar":2,"postalCode":"44115","chef":"Laurent Saudeau"},{"name":"La Fourchette des Ducs","url":"https://restaurant.michelin.fr/2a5ztne/la-fourchette-des-ducs-obernai","nbStar":2,"postalCode":"67210","chef":"Nicolas Stamm"},{"name":"Le Saison","url":"https://restaurant.michelin.fr/2ao631n/le-saison-saint-gregoire","nbStar":1,"postalCode":"35760","chef":"David Etcheverry"},{"name":"La Maison d'à Côté","url":"https://restaurant.michelin.fr/2dxwn73/la-maison-da-cote-montlivault","nbStar":2,"postalCode":"41350","chef":"Christophe Hay"},{"name":"Lamartine","url":"https://restaurant.michelin.fr/28zi7ln/lamartine-le-bourget-du-lac","nbStar":1,"postalCode":"73370","chef":"Pierre Marin"},{"name":"Aux Anges","url":"https://restaurant.michelin.fr/3m56yu9/aux-anges-roanne","nbStar":1,"postalCode":"42300","chef":"Marco Viganò"},{"name":"Jérôme Nutile - Le Mas de Boudan","url":"https://restaurant.michelin.fr/cne1oxue/jerome-nutile-le-mas-de-boudan-nimes","nbStar":1,"postalCode":"30000","chef":"Jérôme Nutile"},{"name":"Le Petit Hôtel du Grand Large","url":"https://restaurant.michelin.fr/2dy7rqn/le-petit-hotel-du-grand-large-portivy","nbStar":1,"postalCode":"56510","chef":"Hervé Bourdon"},{"name":"Le Patio","url":"https://restaurant.michelin.fr/28q4ohd/le-patio-arcachon","nbStar":1,"postalCode":"33120","chef":"Thierry Renou"},{"name":"Épicure","url":"https://restaurant.michelin.fr/2ab8pfp/epicure-paris-08","nbStar":3,"postalCode":"75008","chef":"Eric Frechon"},{"name":"La Promenade","url":"https://restaurant.michelin.fr/2ajy6gr/la-promenade-le-petit-pressigny","nbStar":1,"postalCode":"37350","chef":"Fabrice et Jacky Dallais"},{"name":"Le Raisin","url":"https://restaurant.michelin.fr/2al9714/le-raisin-pont-de-vaux","nbStar":1,"postalCode":"01190","chef":"Frédéric Michel"},{"name":"Le Colombier","url":"https://restaurant.michelin.fr/29d8fg4/le-colombier-offranville","nbStar":1,"postalCode":"76550","chef":"Laurent Kleczewski"},{"name":"Alain Llorca","url":"https://restaurant.michelin.fr/2e4vi29/alain-llorca-la-colle-sur-loup","nbStar":1,"postalCode":"06480","chef":"Alain Llorca"},{"name":"Le Duèze","url":"https://restaurant.michelin.fr/2blc3qr/le-dueze-mercues","nbStar":1,"postalCode":"46090","chef":"Julien Poisot"},{"name":"Auberge de la Mine","url":"https://restaurant.michelin.fr/29hyxpk/auberge-de-la-mine-gue-plat","nbStar":1,"postalCode":"61450","chef":"Hubert Nobis"},{"name":"La Villa Madie","url":"https://restaurant.michelin.fr/2eb50c1n/la-villa-madie-cassis","nbStar":2,"postalCode":"13260","chef":"Dimitri Droisneau"},{"name":"Armani Ristorante","url":"https://restaurant.michelin.fr/3044086/armani-ristorante-paris-06","nbStar":1,"postalCode":"75006","chef":"Massimo Tringali"},{"name":"Carré des Feuillants","url":"https://restaurant.michelin.fr/2a7gjv9/carre-des-feuillants-paris-01","nbStar":1,"postalCode":"75001","chef":"Alain Dutournier"},{"name":"Kei","url":"https://restaurant.michelin.fr/9tmwymw/kei-paris-01","nbStar":2,"postalCode":"75001","chef":"Kei Kobayashi"},{"name":"L'Oustalet","url":"https://restaurant.michelin.fr/2dfwq14/loustalet-gigondas","nbStar":1,"postalCode":"84190","chef":"Laurent Deconinck"},{"name":"La Voile","url":"https://restaurant.michelin.fr/9tangja/la-voile-ramatuelle","nbStar":1,"postalCode":"83350","chef":"Éric  Canino"},{"name":"Alain Ducasse au Plaza Athénée","url":"https://restaurant.michelin.fr/2ab76wf/alain-ducasse-au-plaza-athenee-paris-08","nbStar":3,"postalCode":"75008","chef":""},{"name":"Le Mascaret","url":"https://restaurant.michelin.fr/2edzchf/le-mascaret-blainville-sur-mer","nbStar":1,"postalCode":"50560","chef":"Philippe Hardy"},{"name":"Le Pavillon des Boulevards","url":"https://restaurant.michelin.fr/28y19tl/le-pavillon-des-boulevards-bordeaux","nbStar":1,"postalCode":"33000","chef":"Thomas Morel"},{"name":"JY'S","url":"https://restaurant.michelin.fr/298563e/jys-colmar","nbStar":2,"postalCode":"68000","chef":"Jean-Yves Schillinger"},{"name":"La Table de la Bergerie","url":"https://restaurant.michelin.fr/i1i7i9b/la-table-de-la-bergerie-le-champ-sur-layon","nbStar":1,"postalCode":"49380","chef":"David Guitton"},{"name":"Auberge de Montfleury","url":"https://restaurant.michelin.fr/2b9eb0t/auberge-de-montfleury-villeneuve-de-berg","nbStar":1,"postalCode":"07170","chef":"Richard Rocle"},{"name":"L'Arnsbourg","url":"https://restaurant.michelin.fr/yjkdc8kf/larnsbourg-baerenthal","nbStar":1,"postalCode":"57230","chef":"Fabien Mengus"},{"name":"Maison Rostang","url":"https://restaurant.michelin.fr/2afdah0/maison-rostang-paris-17","nbStar":2,"postalCode":"75017","chef":"Nicolas Beaumann"},{"name":"L'Oasis","url":"https://restaurant.michelin.fr/29v9df2/loasis-mandelieu-la-napoule","nbStar":1,"postalCode":"06210","chef":"Alain Montigny"},{"name":"Penati al Baretto","url":"https://restaurant.michelin.fr/9oo4cel/penati-al-baretto-paris-08","nbStar":1,"postalCode":"75008","chef":"Alberico Penati"},{"name":"Logis de la Cadène","url":"https://restaurant.michelin.fr/3kw7mh1/logis-de-la-cadene-saint-emilion","nbStar":1,"postalCode":"33330","chef":"Alexandre Baumard"},{"name":"Frédéric Simonin","url":"https://restaurant.michelin.fr/2f8857v/frederic-simonin-paris-17","nbStar":1,"postalCode":"75017","chef":"FREDERIC SIMONIN"},{"name":"La Gourmandière - La Table d'Olivier","url":"https://restaurant.michelin.fr/3n5gkk2/la-gourmandiere-la-table-dolivier-vannes","nbStar":1,"postalCode":"56000","chef":"Olivier Samson"},{"name":"La Grande Maison de Bernard Magrez","url":"https://restaurant.michelin.fr/a7u4fcer/la-grande-maison-de-bernard-magrez-bordeaux","nbStar":2,"postalCode":"33000","chef":"Jean-Denis Lebras"},{"name":"Le France","url":"https://restaurant.michelin.fr/2d32mvv/le-france-villers-le-lac","nbStar":1,"postalCode":"25130","chef":"Hugues Droz"},{"name":"AM par Alexandre Mazzia","url":"https://restaurant.michelin.fr/4gq15sff/am-par-alexandre-mazzia-marseille-08","nbStar":2,"postalCode":"13008","chef":"Alexandre Mazzia"},{"name":"Arpège","url":"https://restaurant.michelin.fr/2aa11xs/arpege-paris-07","nbStar":3,"postalCode":"75007","chef":"Alain Passard"},{"name":"Benoit","url":"https://restaurant.michelin.fr/2a8isn4/benoit-paris-04","nbStar":1,"postalCode":"75004","chef":"Fabienne Eymard"},{"name":"Les Cèdres","url":"https://restaurant.michelin.fr/2appio4/les-cedres-granges-les-beaumont","nbStar":2,"postalCode":"26600","chef":"Jacques Bertrand"},{"name":"Paloma","url":"https://restaurant.michelin.fr/280mq6yn/paloma-mougins","nbStar":1,"postalCode":"06250","chef":"Nicolas Decherchi"},{"name":"Les Berceaux","url":"https://restaurant.michelin.fr/29fhuzu/les-berceaux-epernay","nbStar":1,"postalCode":"51200","chef":"Patrick Michelon"},{"name":"Dominique Bucaille","url":"https://restaurant.michelin.fr/nwxo8h9/dominique-bucaille-manosque","nbStar":1,"postalCode":"04100","chef":"Dominique et Julia Bucaille"},{"name":"La Table du Connétable","url":"https://restaurant.michelin.fr/jgutdlg/la-table-du-connetable-chantilly","nbStar":1,"postalCode":"60500","chef":"Julien Lucas"},{"name":"Auberge St-Laurent","url":"https://restaurant.michelin.fr/2b05ga9/auberge-st-laurent-sierentz","nbStar":1,"postalCode":"68510","chef":"Laurent Arbeit"},{"name":"L'Aupiho","url":"https://restaurant.michelin.fr/9wstvf9t/laupiho-les-baux-de-provence","nbStar":1,"postalCode":"13520","chef":"Lieven Van Aken"},{"name":"Flaveur","url":"https://restaurant.michelin.fr/2exgwy4/flaveur-nice","nbStar":2,"postalCode":"06000","chef":"Gaël et Mickaël Tourteaux"},{"name":"Apicius","url":"https://restaurant.michelin.fr/2ek9zhh/apicius-clermont-ferrand","nbStar":1,"postalCode":"63000","chef":"Arkadiusz Zuchmanski"},{"name":"Jean-Luc Tartarin","url":"https://restaurant.michelin.fr/2enmc29/jean-luc-tartarin-le-havre","nbStar":2,"postalCode":"76600","chef":"Jean-Luc Tartarin"},{"name":"Jean-Claude Leclerc","url":"https://restaurant.michelin.fr/297ge86/jean-claude-leclerc-clermont-ferrand","nbStar":1,"postalCode":"63000","chef":"Jean-Claude  Leclerc"},{"name":"Gill","url":"https://restaurant.michelin.fr/2aqe7bm/gill-rouen","nbStar":2,"postalCode":"76000","chef":"Gilles Tournadre"},{"name":"La Pyramide - Patrick Henriroux","url":"https://restaurant.michelin.fr/2f4bg71/la-pyramide-patrick-henriroux-vienne","nbStar":2,"postalCode":"38200","chef":"Patrick Henriroux"},{"name":"Le Grand Véfour","url":"https://restaurant.michelin.fr/2a7edmf/le-grand-vefour-paris-01","nbStar":2,"postalCode":"75001","chef":"Guy Martin"},{"name":"L'Ostal","url":"https://restaurant.michelin.fr/uhpabnjd/lostal-clermont-ferrand","nbStar":1,"postalCode":"63000","chef":"Emmanuel Hebrard"},{"name":"L'Archeste","url":"https://restaurant.michelin.fr/2852206/larcheste-paris-16","nbStar":1,"postalCode":"75116","chef":"Yoshiaki Ito"},{"name":"Restaurant des Rois","url":"https://restaurant.michelin.fr/2bh3p7k/restaurant-des-rois-beaulieu-sur-mer","nbStar":1,"postalCode":"06310","chef":"Yannick Franques"},{"name":"Le Passe Temps","url":"https://restaurant.michelin.fr/44ahwpa/le-passe-temps-lyon-06","nbStar":1,"postalCode":"69006","chef":"Younghoon Lee"},{"name":"La Table d'Olivier Nasti","url":"https://restaurant.michelin.fr/2c30770n/la-table-dolivier-nasti-kaysersberg-vignoble","nbStar":2,"postalCode":"68240","chef":"Olivier Nasti"},{"name":"Pur' - Jean-François Rouquette","url":"https://restaurant.michelin.fr/2dqiunf/pur-jean-francois-rouquette-paris-02","nbStar":1,"postalCode":"75002","chef":"Jean-François Rouquette"},{"name":"L'Ecrin","url":"https://restaurant.michelin.fr/3503291/lecrin-paris-08","nbStar":1,"postalCode":"75008","chef":""},{"name":"Le Relais des Moines","url":"https://restaurant.michelin.fr/28qae64/le-relais-des-moines-les-arcs","nbStar":1,"postalCode":"83460","chef":"Sébastien Sanjou"},{"name":"Entre Vigne et Garrigue","url":"https://restaurant.michelin.fr/2etuup9/entre-vigne-et-garrigue-pujaut","nbStar":1,"postalCode":"30131","chef":"Serge et Maxime Chenet"},{"name":"Relais Louis XIII","url":"https://restaurant.michelin.fr/2a92anu/relais-louis-xiii-paris-06","nbStar":1,"postalCode":"75006","chef":"Manuel Martinez"},{"name":"Les Bories","url":"https://restaurant.michelin.fr/2byq8tg/les-bories-gordes","nbStar":1,"postalCode":"84220","chef":"Grégory Mirer"},{"name":"La Barbacane","url":"https://restaurant.michelin.fr/292xja3/la-barbacane-carcassonne","nbStar":1,"postalCode":"11000","chef":"Jérôme Ryon"},{"name":"Toya","url":"https://restaurant.michelin.fr/3vxe9bf/toya-faulquemont","nbStar":1,"postalCode":"57380","chef":"Loïc Villemin"},{"name":"La Renaissance","url":"https://restaurant.michelin.fr/28qk3fo/la-renaissance-argentan","nbStar":1,"postalCode":"61200","chef":"Arnaud Viel"},{"name":"Château Cordeillan-Bages","url":"https://restaurant.michelin.fr/2chq5p0/chateau-cordeillan-bages-pauillac","nbStar":1,"postalCode":"33250","chef":"Julien Lefebvre"},{"name":"L'Essentiel","url":"https://restaurant.michelin.fr/40jnqvq/lessentiel-deauville","nbStar":1,"postalCode":"14800","chef":"Mi-Ra et Charles Thuillant"},{"name":"Pierre","url":"https://restaurant.michelin.fr/29uvz3j/pierre-macon","nbStar":1,"postalCode":"71000","chef":"Christian Gaulin"},{"name":"Restaurant Christian Étienne","url":"https://restaurant.michelin.fr/28s2o1u/restaurant-christian-etienne-avignon","nbStar":1,"postalCode":"84000","chef":"Guilhem Sevin"},{"name":"La Chèvre d'Or","url":"https://restaurant.michelin.fr/2bwkh5l/la-chevre-dor-eze","nbStar":2,"postalCode":"06360","chef":"Arnaud Faye, Chef Exécutif et Julien Dugourd, Chef Pâtissier"},{"name":"La Table de Philippe Girardon","url":"https://restaurant.michelin.fr/2b8j4np/la-table-de-philippe-girardon-chonas-lamballan","nbStar":1,"postalCode":"38121","chef":"Philippe Girardon"},{"name":"Les Terraillers","url":"https://restaurant.michelin.fr/28x308q/les-terraillers-biot","nbStar":1,"postalCode":"06410","chef":"Michaël Fulci"},{"name":"Antoine","url":"https://restaurant.michelin.fr/2euo0rk/antoine-paris-16","nbStar":1,"postalCode":"75116","chef":"Thibault Sombardier"},{"name":"La Table Breizh Café","url":"https://restaurant.michelin.fr/2f8ln9w/la-table-breizh-cafe-cancale","nbStar":1,"postalCode":"35260","chef":"Fumio KUDAKA"},{"name":"La Gouesnière","url":"https://restaurant.michelin.fr/2byuiv7/la-gouesniere-saint-meloir-des-ondes","nbStar":1,"postalCode":"35350","chef":"Jonathan Bigaré"},{"name":"Le Bec au Cauchois","url":"https://restaurant.michelin.fr/2b6gbtl/le-bec-au-cauchois-valmont","nbStar":1,"postalCode":"76540","chef":"Pierre Caillet"},{"name":"L'Atelier du Peintre","url":"https://restaurant.michelin.fr/2ewn3lj/latelier-du-peintre-colmar","nbStar":1,"postalCode":"68000","chef":"Loïc Lefebvre"},{"name":"Le Clair de la Plume","url":"https://restaurant.michelin.fr/2faahd5/le-clair-de-la-plume-grignan","nbStar":1,"postalCode":"26230","chef":"Julien Allano"},{"name":"La Cachette","url":"https://restaurant.michelin.fr/2dyaa0w/la-cachette-valence","nbStar":1,"postalCode":"26000","chef":"Masashi Ijichi"},{"name":"Meurin","url":"https://restaurant.michelin.fr/2dyfstx/meurin-busnes","nbStar":2,"postalCode":"62350","chef":"Marc Meurin"},{"name":"Le Cap","url":"https://restaurant.michelin.fr/2cqc8op/le-cap-saint-jean-cap-ferrat","nbStar":1,"postalCode":"06230","chef":"Yoric Tièche"},{"name":"Le Sénéchal","url":"https://restaurant.michelin.fr/2cv1ygx/le-senechal-sauveterre-de-rouergue","nbStar":1,"postalCode":"12800","chef":"Michel Truchon"},{"name":"L'Olivier","url":"https://restaurant.michelin.fr/2css2bw/lolivier-saint-tropez","nbStar":1,"postalCode":"83990","chef":"Phillipe Colinet"},{"name":"Les Trois Dômes","url":"https://restaurant.michelin.fr/29svngf/les-trois-domes-lyon-02","nbStar":1,"postalCode":"69002","chef":"Christian Lherm"},{"name":"Le Pré Catelan","url":"https://restaurant.michelin.fr/2af46v7/le-pre-catelan-paris-16","nbStar":3,"postalCode":"75016","chef":""},{"name":"Le Gourmet de Sèze","url":"https://restaurant.michelin.fr/29trkin/le-gourmet-de-seze-lyon-06","nbStar":1,"postalCode":"69006","chef":"Bernard Mariller"},{"name":"Les Loges","url":"https://restaurant.michelin.fr/29t3z0x/les-loges-lyon-05","nbStar":1,"postalCode":"69005","chef":"Anthony Bonnet"},{"name":"Le Prieuré","url":"https://restaurant.michelin.fr/2d2wqpd/le-prieure-villeneuve-les-avignon","nbStar":1,"postalCode":"30400","chef":"Marc Fontanne"},{"name":"Le Cénacle","url":"https://restaurant.michelin.fr/ua83vloo/le-cenacle-toulouse","nbStar":1,"postalCode":"31000","chef":"Thomas Vonderscher"},{"name":"Le Candille","url":"https://restaurant.michelin.fr/2a1fgdk/le-candille-mougins","nbStar":1,"postalCode":"06250","chef":"Xavier Burelle"},{"name":"Lasserre","url":"https://restaurant.michelin.fr/2abcqvg/lasserre-paris-08","nbStar":1,"postalCode":"75008","chef":"Nicolas le Tirrand"},{"name":"Stéphane Tournié - Les Jardins de l'Opéra","url":"https://restaurant.michelin.fr/2b3631b/stephane-tournie-les-jardins-de-lopera-toulouse","nbStar":1,"postalCode":"31000","chef":"Stéphane Tournié"},{"name":"Hostellerie de Plaisance","url":"https://restaurant.michelin.fr/2cp6y7n/hostellerie-de-plaisance-saint-emilion","nbStar":2,"postalCode":"33330","chef":"Ronan Kervarrec"},{"name":"L'Orangerie","url":"https://restaurant.michelin.fr/2851286/lorangerie-paris-08","nbStar":1,"postalCode":"75008","chef":"Alan Taudon"},{"name":"114, Faubourg","url":"https://restaurant.michelin.fr/2f3fs2n/114-faubourg-paris-08","nbStar":1,"postalCode":"75008","chef":"Loïc Dantec"},{"name":"Yoshinori","url":"https://restaurant.michelin.fr/3361741/yoshinori-paris-06","nbStar":1,"postalCode":"75006","chef":"Yoshinori Morié"},{"name":"Alexandre","url":"https://restaurant.michelin.fr/2a57m2j/alexandre-garons","nbStar":2,"postalCode":"30128","chef":"Michel Kayser"},{"name":"Divellec","url":"https://restaurant.michelin.fr/2852181/divellec-paris-07","nbStar":1,"postalCode":"75007","chef":"Mathieu Pacaud"},{"name":"Le Pourquoi Pas","url":"https://restaurant.michelin.fr/a6rns6u0/le-pourquoi-pas-dinard","nbStar":1,"postalCode":"35800","chef":"Le chef breton Julien Hennote"},{"name":"La Lorraine","url":"https://restaurant.michelin.fr/2bavyqh/la-lorraine-zoufftgen","nbStar":1,"postalCode":"57330","chef":"Lucien Keff"},{"name":"Jin","url":"https://restaurant.michelin.fr/1t2b08px/jin-paris-01","nbStar":1,"postalCode":"75001","chef":"Takuya Watanabe"},{"name":"Auberge du Pont d'Acigné","url":"https://restaurant.michelin.fr/2ao77e3/auberge-du-pont-dacigne-noyal-sur-vilaine","nbStar":1,"postalCode":"35530","chef":"Sylvain Guillemot"},{"name":"Le Saint-Martin","url":"https://restaurant.michelin.fr/2d1gnwo/le-saint-martin-vence","nbStar":1,"postalCode":"06140","chef":"Jean-Luc Lefrançois"},{"name":"La Table de l'Alpaga","url":"https://restaurant.michelin.fr/9tlmhvt/la-table-de-lalpaga-megeve","nbStar":1,"postalCode":"74120","chef":"Anthony Bisquerra"},{"name":"La Table du Gourmet","url":"https://restaurant.michelin.fr/2aosxv6/la-table-du-gourmet-riquewihr","nbStar":1,"postalCode":"68340","chef":"Jean-Luc Brendel"},{"name":"Skab","url":"https://restaurant.michelin.fr/olnthqo/skab-nimes","nbStar":1,"postalCode":"30000","chef":"Damien Sanchez"},{"name":"1912","url":"https://restaurant.michelin.fr/cns0apa3/1912-trouville-sur-mer","nbStar":1,"postalCode":"14360","chef":"Johan Thyriot"},{"name":"Auberge de la Charme","url":"https://restaurant.michelin.fr/29dyqga/auberge-de-la-charme-prenois","nbStar":1,"postalCode":"21370","chef":"Nicolas Isnard et David Le Comte"},{"name":"Château de Courban","url":"https://restaurant.michelin.fr/2emcabb/chateau-de-courban-courban","nbStar":1,"postalCode":"21520","chef":"Takashi Kinoshita"},{"name":"Le P'tit Polyte","url":"https://restaurant.michelin.fr/2bufvvg87/le-ptit-polyte-venosc","nbStar":1,"postalCode":"38860","chef":"Mathew Hegarty"},{"name":"Cicada, Table du Hameau","url":"https://restaurant.michelin.fr/xb2s4av1/cicada-table-du-hameau-paradou","nbStar":1,"postalCode":"13520","chef":"Stéphan Paroche"},{"name":"Le Grand Bleu","url":"https://restaurant.michelin.fr/2d6bc3s/le-grand-bleu-sarlat-la-caneda","nbStar":1,"postalCode":"24200","chef":"Maxime Lebrun"},{"name":"La Bastide St-Antoine","url":"https://restaurant.michelin.fr/29ktfvn/la-bastide-st-antoine-grasse","nbStar":1,"postalCode":"06130","chef":"Jacques Chibois"},{"name":"La Marine","url":"https://restaurant.michelin.fr/29n79hz/la-marine-lherbaudiere","nbStar":2,"postalCode":"85330","chef":"Alexandre Couillon"},{"name":"Louis","url":"https://restaurant.michelin.fr/cmfchcva/louis-paris-09","nbStar":1,"postalCode":"75009","chef":"Stéphane Pitré"},{"name":"Apicius","url":"https://restaurant.michelin.fr/2affgmi/apicius-paris-08","nbStar":1,"postalCode":"75008","chef":""},{"name":"U Santa Marina","url":"https://restaurant.michelin.fr/2e7dmcj/u-santa-marina-porto-vecchio","nbStar":1,"postalCode":"20137","chef":"LE Cheviller Nikolaz"},{"name":"Nakatani","url":"https://restaurant.michelin.fr/3x81832/nakatani-paris-07","nbStar":1,"postalCode":"75007","chef":"Shinsuke Nakatani"},{"name":"Fontevraud Le Restaurant","url":"https://restaurant.michelin.fr/9pbvgq6a/fontevraud-le-restaurant-fontevraud-labbaye","nbStar":1,"postalCode":"49590","chef":"Thibaut  Ruggeri"},{"name":"Le Vieux Logis","url":"https://restaurant.michelin.fr/2cz3yz2/le-vieux-logis-tremolat","nbStar":1,"postalCode":"24510","chef":"Vincent Arnould"},{"name":"Le Grand Restaurant - Jean-François Piège","url":"https://restaurant.michelin.fr/u5aaw2ah/le-grand-restaurant-jean-francois-piege-paris-08","nbStar":2,"postalCode":"75008","chef":"Jean-François Piège"},{"name":"Lalique","url":"https://restaurant.michelin.fr/3803186/lalique-bommes","nbStar":1,"postalCode":"33210","chef":"Jérôme Schilling"},{"name":"Pierre Reboul","url":"https://restaurant.michelin.fr/9pmxzh3/pierre-reboul-aix-en-provence","nbStar":1,"postalCode":"13290","chef":"Pierre Reboul"},{"name":"Baieta","url":"https://restaurant.michelin.fr/3750236/baieta-paris-05","nbStar":1,"postalCode":"75005","chef":"Julia Sedefdjian"},{"name":"Prima","url":"https://restaurant.michelin.fr/3492296/prima-megeve","nbStar":1,"postalCode":"74120","chef":"Nicolas Hensinger"},{"name":"Le Manoir du Lys","url":"https://restaurant.michelin.fr/2bfnmbt/le-manoir-du-lys-bagnoles-de-lorne-normandie","nbStar":1,"postalCode":"61140","chef":"Franck Quinton"},{"name":"La Palmeraie","url":"https://restaurant.michelin.fr/2btuhm0/la-palmeraie-la-croix-valmer","nbStar":1,"postalCode":"83420","chef":"Jimmy Coutel"},{"name":"La Palme d'Or","url":"https://restaurant.michelin.fr/292bk5u/la-palme-dor-cannes","nbStar":2,"postalCode":"06400","chef":"Christian Sinicropi"},{"name":"Automne","url":"https://restaurant.michelin.fr/3547121/automne-paris-11","nbStar":1,"postalCode":"75011","chef":"Nobuyuki Akishige"},{"name":"Le Pré - Xavier Beaudiment","url":"https://restaurant.michelin.fr/2ev16nl/le-pre-xavier-beaudiment-durtol","nbStar":2,"postalCode":"63830","chef":"Xavier Beaudiment"},{"name":"Auberge des Saints Pères","url":"https://restaurant.michelin.fr/2aga7gz/auberge-des-saints-peres-aulnay-sous-bois","nbStar":1,"postalCode":"93600","chef":"Jean-Claude Cahagnet"},{"name":"Louison","url":"https://restaurant.michelin.fr/3068881/louison-le-puy-sainte-reparade","nbStar":1,"postalCode":"13610","chef":"Gérald Passedat"},{"name":"Auberge du Cellier","url":"https://restaurant.michelin.fr/2a02pjj/auberge-du-cellier-montner","nbStar":1,"postalCode":"66720","chef":"Pierre-Louis Marin"},{"name":"Le Pavé d'Auge","url":"https://restaurant.michelin.fr/28wgjgo/le-pave-dauge-beuvron-en-auge","nbStar":1,"postalCode":"14430","chef":"Jérôme Bansard"},{"name":"Elsa","url":"https://restaurant.michelin.fr/9p2kj2b/elsa-cap-martin","nbStar":1,"postalCode":"06190","chef":"Paolo Sari"},{"name":"Copenhague","url":"https://restaurant.michelin.fr/2916876/copenhague-paris-08","nbStar":1,"postalCode":"75008","chef":"Andreas Møller"},{"name":"La Condesa","url":"https://restaurant.michelin.fr/3491071/la-condesa-paris-09","nbStar":1,"postalCode":"75009","chef":"Indra Carrillo"},{"name":"L'Aromate","url":"https://restaurant.michelin.fr/2epn29l/laromate-nice","nbStar":1,"postalCode":"06000","chef":"Mickaël Gracieux"},{"name":"Sola","url":"https://restaurant.michelin.fr/3yamflk/sola-paris-05","nbStar":1,"postalCode":"75005","chef":"Kosuke Nabeta"},{"name":"Les Trois Soleils de Montal","url":"https://restaurant.michelin.fr/2coonxc/les-trois-soleils-de-montal-saint-cere","nbStar":1,"postalCode":"46400","chef":"Frédérik Bizat"},{"name":"Les Prés d'Eugénie - Michel Guérard","url":"https://restaurant.michelin.fr/29g9pvw/les-pres-deugenie-michel-guerard-eugenie-les-bains","nbStar":3,"postalCode":"40320","chef":"Michel Guérard"},{"name":"Girardin - Gastronomique","url":"https://restaurant.michelin.fr/xha7r0xl/girardin-gastronomique-colmar","nbStar":1,"postalCode":"68000","chef":"Éric Girardin"},{"name":"La Réserve Rimbaud","url":"https://restaurant.michelin.fr/2d8d9p1/la-reserve-rimbaud-montpellier","nbStar":1,"postalCode":"34000","chef":"Charles Fontes"},{"name":"La Ferme de l'Hospital","url":"https://restaurant.michelin.fr/2atzy38/la-ferme-de-lhospital-bossey","nbStar":1,"postalCode":"74160","chef":"Jean-Jacques Noguier"},{"name":"Le 1947","url":"https://restaurant.michelin.fr/2eac1q1/le-1947-courchevel-1850","nbStar":3,"postalCode":"73120","chef":"Yannick Alléno"},{"name":"Auberge Grand'Maison","url":"https://restaurant.michelin.fr/2a2flya/auberge-grandmaison-mur-de-bretagne","nbStar":1,"postalCode":"22530","chef":"Christophe Le Fur"},{"name":"ERH","url":"https://restaurant.michelin.fr/3345846/erh-paris-02","nbStar":1,"postalCode":"75002","chef":"Keita Kitamura"},{"name":"La Table de l'Ours","url":"https://restaurant.michelin.fr/2dpd99z/la-table-de-lours-val-disere","nbStar":1,"postalCode":"73150","chef":"Antoine Gras"},{"name":"Oka","url":"https://restaurant.michelin.fr/3855601/oka-paris-05","nbStar":1,"postalCode":"75005","chef":"Raphaël Rego"},{"name":"Casadelmar","url":"https://restaurant.michelin.fr/2dk81h5143/casadelmar-porto-vecchio","nbStar":2,"postalCode":"20137","chef":"Fabio Bragagnolo"},{"name":"Ursus","url":"https://restaurant.michelin.fr/2f5gm14/ursus-tignes","nbStar":1,"postalCode":"73320","chef":"Clément Bouvier"},{"name":"Le Millénaire","url":"https://restaurant.michelin.fr/2ank1c1/le-millenaire-reims","nbStar":1,"postalCode":"51100","chef":"Laurent et Thibault Laplaige"},{"name":"Stéphane Carbone","url":"https://restaurant.michelin.fr/2enzj8x/stephane-carbone-caen","nbStar":1,"postalCode":"14000","chef":"Stéphane Carbone"},{"name":"L'Émulsion","url":"https://restaurant.michelin.fr/5jdkm0u/lemulsion-saint-alban-de-roche","nbStar":1,"postalCode":"38080","chef":"Romain Hubert"},{"name":"La Maison des Bois - Marc Veyrat","url":"https://restaurant.michelin.fr/8zgzs262/la-maison-des-bois-marc-veyrat-manigod","nbStar":2,"postalCode":"74230","chef":"Marc Veyrat"},{"name":"Flaveurs","url":"https://restaurant.michelin.fr/2e043qi/flaveurs-valence","nbStar":1,"postalCode":"26000","chef":"Baptiste Poinot"},{"name":"Le Beaulieu","url":"https://restaurant.michelin.fr/29vchdk/le-beaulieu-le-mans","nbStar":1,"postalCode":"72000","chef":"Olivier Boussard"},{"name":"L'Axel","url":"https://restaurant.michelin.fr/29i66ux/laxel-fontainebleau","nbStar":1,"postalCode":"77300","chef":"Kunihisa Goto"},{"name":"Dan B. - La Table de Ventabren","url":"https://restaurant.michelin.fr/2b7at88/dan-b-la-table-de-ventabren-ventabren","nbStar":1,"postalCode":"13122","chef":"Dan Bessoudo"},{"name":"Aida","url":"https://restaurant.michelin.fr/2dzh7q2/aida-paris-07","nbStar":1,"postalCode":"75007","chef":"Koji Aida"},{"name":"Auberge La Fenière","url":"https://restaurant.michelin.fr/29sgjsx279/auberge-la-feniere-cadenet","nbStar":1,"postalCode":"84160","chef":"Reine et Nadia Sammut"},{"name":"Christopher Coutanceau","url":"https://restaurant.michelin.fr/2apfrj5/christopher-coutanceau-la-rochelle","nbStar":2,"postalCode":"17000","chef":"Christopher Coutanceau"},{"name":"Alliance","url":"https://restaurant.michelin.fr/t4cp5kaa/alliance-paris-05","nbStar":1,"postalCode":"75005","chef":"Toshitaka Omiya"},{"name":"L'Étang du Moulin","url":"https://restaurant.michelin.fr/28xqe8v/letang-du-moulin-bonnetage","nbStar":1,"postalCode":"25210","chef":"Jacques Barnachon"},{"name":"Une Île","url":"https://restaurant.michelin.fr/2erjwfi/une-ile-angers","nbStar":1,"postalCode":"49000","chef":"Gérard Bossé"},{"name":"Le Clocher des Pères","url":"https://restaurant.michelin.fr/h43i086/le-clocher-des-peres-saint-martin-sur-la-chambre","nbStar":1,"postalCode":"73130","chef":"Pierre Troccaz"},{"name":"La Vague d'Or - Cheval Blanc St-Tropez","url":"https://restaurant.michelin.fr/2csqkr7/la-vague-dor-cheval-blanc-st-tropez-saint-tropez","nbStar":3,"postalCode":"83990","chef":"Arnaud Donckele"},{"name":"Qui plume la Lune","url":"https://restaurant.michelin.fr/jh83esx/qui-plume-la-lune-paris-11","nbStar":1,"postalCode":"75011","chef":"Jacky Ribault"},{"name":"René et Maxime Meilleur","url":"https://restaurant.michelin.fr/2avet55/rene-et-maxime-meilleur-saint-martin-de-belleville","nbStar":3,"postalCode":"73440","chef":"René et Maxime Meilleur"},{"name":"Maison Dufossé - La Table","url":"https://restaurant.michelin.fr/2dse7wh/maison-dufosse-la-table-metz","nbStar":1,"postalCode":"57000","chef":"Christophe Dufossé"},{"name":"Flocons de Sel","url":"https://restaurant.michelin.fr/29wzk9t/flocons-de-sel-megeve","nbStar":3,"postalCode":"74120","chef":"Emmanuel Renaut"},{"name":"Likoké","url":"https://restaurant.michelin.fr/1ad26y4c/likoke-les-vans","nbStar":1,"postalCode":"07140","chef":"Piet Huysentruyt"},{"name":"Albert 1er","url":"https://restaurant.michelin.fr/2bnvpvu/albert-1er-chamonix-mont-blanc","nbStar":2,"postalCode":"74400","chef":"Damien Leveau"},{"name":"La Table du 11","url":"https://restaurant.michelin.fr/d4dm7ddr/la-table-du-11-versailles","nbStar":1,"postalCode":"78000","chef":"Jean-Baptiste Lavergne-Morazzani"},{"name":"Le Champ des Lunes","url":"https://restaurant.michelin.fr/ua2fx9zg/le-champ-des-lunes-lauris","nbStar":1,"postalCode":"84360","chef":"Jérôme Faure"},{"name":"Miraflores","url":"https://restaurant.michelin.fr/2jcivvu3/miraflores-lyon-06","nbStar":1,"postalCode":"69006","chef":"Carlos Camino"},{"name":"Les Clefs d'Argent","url":"https://restaurant.michelin.fr/2e0bvx8/les-clefs-dargent-mont-de-marsan","nbStar":1,"postalCode":"40000","chef":"Christophe Dupouy"},{"name":"La Balette","url":"https://restaurant.michelin.fr/2dlsvt0/la-balette-collioure","nbStar":1,"postalCode":"66190","chef":"Frédéric Bacquié"},{"name":"Prairial","url":"https://restaurant.michelin.fr/cpiyfjc0/prairial-lyon","nbStar":1,"postalCode":"69001","chef":"Gaëtan Gentil"},{"name":"L'Atelier Yssoirien","url":"https://restaurant.michelin.fr/akc6ovv/latelier-yssoirien-issoire","nbStar":1,"postalCode":"63500","chef":"Dorian Van Bronkhorst"},{"name":"La Table de Nans","url":"https://restaurant.michelin.fr/akfvyg8/la-table-de-nans-la-ciotat","nbStar":1,"postalCode":"13600","chef":"Nans Gaillard"},{"name":"La Promenade","url":"https://restaurant.michelin.fr/n3jledr/la-promenade-verfeil","nbStar":1,"postalCode":"31590","chef":"Nicolas Thomas"},{"name":"La Grange de Belle-Église","url":"https://restaurant.michelin.fr/28vem1k/la-grange-de-belle-eglise-belle-eglise","nbStar":1,"postalCode":"60540","chef":"Marc Duval"},{"name":"La Table d'Uzès","url":"https://restaurant.michelin.fr/1ss80t3t/la-table-duzes-uzes","nbStar":1,"postalCode":"30700","chef":"Christophe  Ducros"},{"name":"Takao Takano","url":"https://restaurant.michelin.fr/1fchzdq5/takao-takano-lyon-06","nbStar":2,"postalCode":"69006","chef":"Takao Takano"},{"name":"Buerehiesel","url":"https://restaurant.michelin.fr/2b0sgrs/buerehiesel-strasbourg","nbStar":1,"postalCode":"67000","chef":"Eric Westermann"},{"name":"Le Vivier","url":"https://restaurant.michelin.fr/29nsjme/le-vivier-lisle-sur-la-sorgue","nbStar":1,"postalCode":"84800","chef":"Romain Gandolphe"},{"name":"Auberge au Bœuf","url":"https://restaurant.michelin.fr/2b00ufd/auberge-au-boeuf-sessenheim","nbStar":1,"postalCode":"67770","chef":"Yannick Germain"},{"name":"Maximilien","url":"https://restaurant.michelin.fr/2aoyre2/maximilien-zellenberg","nbStar":1,"postalCode":"68340","chef":"Jean-Michel Eblin"},{"name":"Marsan - Hélène Darroze","url":"https://restaurant.michelin.fr/2a93ort/marsan-helene-darroze-paris-06","nbStar":1,"postalCode":"75006","chef":"Hélène Darroze"},{"name":"Auberge de la Brie","url":"https://restaurant.michelin.fr/29ask7o/auberge-de-la-brie-couilly-pont-aux-dames","nbStar":1,"postalCode":"77860","chef":"Alain Pavard"},{"name":"Le Lido","url":"https://restaurant.michelin.fr/29ajku0/le-lido-propriano","nbStar":1,"postalCode":"20110","chef":"Romuald ROYER"},{"name":"Le Musigny","url":"https://restaurant.michelin.fr/3yjthyc/le-musigny-valenciennes","nbStar":1,"postalCode":"59300","chef":"Emmanuel Hernandez"},{"name":"Quai des Saveurs","url":"https://restaurant.michelin.fr/2e9sbx2/quai-des-saveurs-hagondange","nbStar":1,"postalCode":"57300","chef":"Frédéric Sandrini"},{"name":"Les Ducs de Lorraine","url":"https://restaurant.michelin.fr/29fq33a/les-ducs-de-lorraine-epinal","nbStar":1,"postalCode":"88000","chef":"Stéphane Ringer et Rémi Gornet"},{"name":"Astrance","url":"https://restaurant.michelin.fr/2aeq3md/astrance-paris-16","nbStar":2,"postalCode":"75016","chef":"Pascal Barbot"},{"name":"Serge Vieira","url":"https://restaurant.michelin.fr/2ey495p/serge-vieira-chaudes-aigues","nbStar":2,"postalCode":"15110","chef":"Serge Vieira"},{"name":"Au Crocodile","url":"https://restaurant.michelin.fr/kl196wcf/au-crocodile-strasbourg","nbStar":1,"postalCode":"67000","chef":"Franck Pelux"},{"name":"Le Cinq","url":"https://restaurant.michelin.fr/2ab2thp/le-cinq-paris-08","nbStar":3,"postalCode":"75008","chef":"Christian Le Squer"},{"name":"Le 7ème Continent","url":"https://restaurant.michelin.fr/9tnfzh4/le-7eme-continent-rixheim","nbStar":1,"postalCode":"68170","chef":"Laurent Haller"},{"name":"La Table Saint-Crescent","url":"https://restaurant.michelin.fr/2a3kuo9/la-table-saint-crescent-narbonne","nbStar":1,"postalCode":"11100","chef":"Lionel Giraud"},{"name":"La Maison dans le Parc","url":"https://restaurant.michelin.fr/2elnjes/la-maison-dans-le-parc-nancy","nbStar":1,"postalCode":"54000","chef":"Françoise Mutel"},{"name":"Gordon Ramsay au Trianon","url":"https://restaurant.michelin.fr/2aiqpqd/gordon-ramsay-au-trianon-versailles","nbStar":1,"postalCode":"78000","chef":"Frédéric Larquemin"},{"name":"Le Domaine de la Corniche","url":"https://restaurant.michelin.fr/2cmxk0v/le-domaine-de-la-corniche-rolleboise","nbStar":1,"postalCode":"78270","chef":"Julien Razemon"},{"name":"Les Trois Rochers","url":"https://restaurant.michelin.fr/2bi0j2j/les-trois-rochers-sainte-marine","nbStar":1,"postalCode":"29120","chef":"Fréderic Claquin"},{"name":"Le Chabichou","url":"https://restaurant.michelin.fr/2btao3c/le-chabichou-courchevel-1850","nbStar":2,"postalCode":"73120","chef":"Michel Rochedy et Stéphane Buron"},{"name":"Les Climats","url":"https://restaurant.michelin.fr/3x7v6dz/les-climats-paris-07","nbStar":1,"postalCode":"75007","chef":"Julien Boscus"},{"name":"Les Voiles d'Or","url":"https://restaurant.michelin.fr/2dtoif7/les-voiles-dor-dieppe","nbStar":1,"postalCode":"76200","chef":"Tristan Arhan"},{"name":"Passage 53","url":"https://restaurant.michelin.fr/2ezpxm7/passage-53-paris-02","nbStar":2,"postalCode":"75002","chef":"Shinichi Sato"},{"name":"Le Kintessence","url":"https://restaurant.michelin.fr/am8q9hp/le-kintessence-courchevel-1850","nbStar":2,"postalCode":"73120","chef":"Jean-Rémi Caillon"},{"name":"L'Allée des Vignes","url":"https://restaurant.michelin.fr/aisrm50/lallee-des-vignes-cajarc","nbStar":1,"postalCode":"46160","chef":"Claude-Emmanuel Robin"},{"name":"Mavrommatis","url":"https://restaurant.michelin.fr/2a95vol/mavrommatis-paris-05","nbStar":1,"postalCode":"75005","chef":"Andréas MAVROMMATIS"},{"name":"Le Kaïku","url":"https://restaurant.michelin.fr/2atmq22/le-kaiku-saint-jean-de-luz","nbStar":1,"postalCode":"64500","chef":"Nicolas Borombo"},{"name":"Au 14 Février","url":"https://restaurant.michelin.fr/2f80e2p/au-14-fevrier-saint-valentin","nbStar":1,"postalCode":"36100","chef":""},{"name":"La Table des Frères Ibarboure","url":"https://restaurant.michelin.fr/28x2q9k/la-table-des-freres-ibarboure-bidart","nbStar":1,"postalCode":"64210","chef":"Xabi et Patrice Ibarboure"},{"name":"Py-r","url":"https://restaurant.michelin.fr/2fdyj14/py-r-toulouse","nbStar":1,"postalCode":"31000","chef":"Pierre Lambinon"},{"name":"La Grenouillère","url":"https://restaurant.michelin.fr/2a0ne3f/la-grenouillere-la-madelaine-sous-montreuil","nbStar":2,"postalCode":"62170","chef":"Alexandre Gauthier"},{"name":"Guy Lassausaie","url":"https://restaurant.michelin.fr/295zuzb/guy-lassausaie-chasselay","nbStar":1,"postalCode":"69380","chef":"Guy  Lassausaie"},{"name":"Le George","url":"https://restaurant.michelin.fr/9q8vl0jf/le-george-paris-08","nbStar":1,"postalCode":"75008","chef":"Simone Zanoni"},{"name":"Bras","url":"https://restaurant.michelin.fr/2c3ezsd/bras-laguiole","nbStar":2,"postalCode":"12210","chef":"Sébastien Bras"},{"name":"Le Puits St-Jacques","url":"https://restaurant.michelin.fr/29nnrkd/le-puits-st-jacques-pujaudran","nbStar":2,"postalCode":"32600","chef":"Bernard Bach et William Candelon"},{"name":"L'Anthocyane","url":"https://restaurant.michelin.fr/30sfws39/lanthocyane-lannion","nbStar":1,"postalCode":"22300","chef":"Marc Briand"},{"name":"La Table d'Olivier","url":"https://restaurant.michelin.fr/5f24ty3/la-table-dolivier-brive-la-gaillarde","nbStar":1,"postalCode":"19100","chef":"Pierre Neveu"},{"name":"Numéro 3","url":"https://restaurant.michelin.fr/2dnmje9/numero-3-le-tremblay-sur-mauldre","nbStar":1,"postalCode":"78490","chef":"Laurent Trochain"},{"name":"La Bastide de Capelongue","url":"https://restaurant.michelin.fr/2bj1jms/la-bastide-de-capelongue-bonnieux","nbStar":2,"postalCode":"84480","chef":"Édouard Loubet"},{"name":"L'Aquarelle","url":"https://restaurant.michelin.fr/2dk9wkt/laquarelle-breuillet","nbStar":1,"postalCode":"17920","chef":"Xavier Taffart"},{"name":"Maison Prévôt","url":"https://restaurant.michelin.fr/2947j86/maison-prevot-cavaillon","nbStar":1,"postalCode":"84300","chef":"Jean-Jacques Prévôt"},{"name":"Avel Vor","url":"https://restaurant.michelin.fr/2da93ps/avel-vor-port-louis","nbStar":1,"postalCode":"56290","chef":"Patrice Gahinet"},{"name":"Ze Kitchen Galerie","url":"https://restaurant.michelin.fr/2a9xcsf/ze-kitchen-galerie-paris-06","nbStar":1,"postalCode":"75006","chef":"William Ledeuil"},{"name":"Terre-Mer","url":"https://restaurant.michelin.fr/2f8kr60/terre-mer-auray","nbStar":1,"postalCode":"56400","chef":"Anthony Jéhanno"},{"name":"La Table des Blot - Auberge du Château","url":"https://restaurant.michelin.fr/2agz71j/la-table-des-blot-auberge-du-chateau-dampierre-en-yvelines","nbStar":1,"postalCode":"78720","chef":"Christophe Blot"},{"name":"La Petite Maison de Cucuron","url":"https://restaurant.michelin.fr/29c2o3y/la-petite-maison-de-cucuron-cucuron","nbStar":1,"postalCode":"84160","chef":"Eric Sapet"},{"name":"SaQuaNa","url":"https://restaurant.michelin.fr/2e11xi8/saquana-honfleur","nbStar":2,"postalCode":"14600","chef":"Alexandre Bourdas"},{"name":"En Pleine Nature","url":"https://restaurant.michelin.fr/s5y0mmq/en-pleine-nature-fonsegrives","nbStar":1,"postalCode":"31130","chef":"Sylvain Joffre"},{"name":"Mariottat","url":"https://restaurant.michelin.fr/28n68fe/mariottat-agen","nbStar":1,"postalCode":"47000","chef":"Éric Mariottat"},{"name":"Le Figuier de St-Esprit","url":"https://restaurant.michelin.fr/2ejmich/le-figuier-de-st-esprit-antibes","nbStar":1,"postalCode":"06600","chef":"Christian Morisset"},{"name":"Roscanvec","url":"https://restaurant.michelin.fr/2b6s3ty/roscanvec-vannes","nbStar":1,"postalCode":"56000","chef":"Thierry Seychelles"},{"name":"L'Olivier","url":"https://restaurant.michelin.fr/2c1rglq/lolivier-hyeres","nbStar":1,"postalCode":"83400","chef":"Julien Le Goff"},{"name":"Umami","url":"https://restaurant.michelin.fr/2ei9xex/umami-strasbourg","nbStar":1,"postalCode":"67000","chef":"René Fieger"},{"name":"L'Atelier de Joël Robuchon - St-Germain","url":"https://restaurant.michelin.fr/2dduyu5/latelier-de-joel-robuchon-st-germain-paris-07","nbStar":2,"postalCode":"75007","chef":""},{"name":"Michel Sarran","url":"https://restaurant.michelin.fr/2b380z8/michel-sarran-toulouse","nbStar":2,"postalCode":"31000","chef":"Michel Sarran"},{"name":"Hostellerie de Levernois","url":"https://restaurant.michelin.fr/28updvu/hostellerie-de-levernois-levernois","nbStar":1,"postalCode":"21200","chef":""},{"name":"La Table de Chaintré","url":"https://restaurant.michelin.fr/294fsc5/la-table-de-chaintre-chaintre","nbStar":1,"postalCode":"71570","chef":"Sébastien Grospellier"},{"name":"Le Puits du Trésor","url":"https://restaurant.michelin.fr/29pxfvs/le-puits-du-tresor-lastours","nbStar":1,"postalCode":"11600","chef":"Jean-Marc Boyer"},{"name":"Le Bistrot de Lagarde","url":"https://restaurant.michelin.fr/jfxt32k/le-bistrot-de-lagarde-lagarde-dapt","nbStar":1,"postalCode":"84400","chef":"Lloyd Tropeano"},{"name":"Le Gambetta","url":"https://restaurant.michelin.fr/2ayqw5m/le-gambetta-saumur","nbStar":1,"postalCode":"49400","chef":"Mickael Pihours"},{"name":"Michel Trama","url":"https://restaurant.michelin.fr/2ckuncq/michel-trama-puymirol","nbStar":2,"postalCode":"47270","chef":"Michel Trama"},{"name":"Le Chiquito","url":"https://restaurant.michelin.fr/2ago3w6/le-chiquito-mery-sur-oise","nbStar":1,"postalCode":"95540","chef":"Alain Mihura"},{"name":"Au Déjeuner de Sousceyrac","url":"https://restaurant.michelin.fr/2b0i0m7/au-dejeuner-de-sousceyrac-sousceyrac-en-quercy","nbStar":1,"postalCode":"46190","chef":"Patrick Lagnès"},{"name":"Le Cercle","url":"https://restaurant.michelin.fr/9trxkaz/le-cercle-bourges","nbStar":1,"postalCode":"18000","chef":"Pascal Chaupitre et Christophe Lot"},{"name":"Pertica","url":"https://restaurant.michelin.fr/3u9bmm3c/pertica-vendome","nbStar":1,"postalCode":"41100","chef":"Guillaume Foucault"},{"name":"Cayola","url":"https://restaurant.michelin.fr/2arajo6/cayola-chateau-dolonne","nbStar":1,"postalCode":"85180","chef":"Sébastien Bonavita"},{"name":"La Closerie","url":"https://restaurant.michelin.fr/2eebgpo/la-closerie-ansouis","nbStar":1,"postalCode":"84240","chef":"Olivier Alemany"},{"name":"Au Souper Fin","url":"https://restaurant.michelin.fr/29783wk/au-souper-fin-frichemesnil","nbStar":1,"postalCode":"76690","chef":"Eric Buisset"},{"name":"Le Lièvre Gourmand","url":"https://restaurant.michelin.fr/2f48mjv/le-lievre-gourmand-orleans","nbStar":1,"postalCode":"45000","chef":"Tristan Robreau"},{"name":"Septime","url":"https://restaurant.michelin.fr/3xrgyvn/septime-paris-11","nbStar":1,"postalCode":"75011","chef":"Bertrand Grébaut"},{"name":"L'Atelier de Joël Robuchon - Étoile","url":"https://restaurant.michelin.fr/2feca5y/latelier-de-joel-robuchon-etoile-paris-08","nbStar":1,"postalCode":"75008","chef":""},{"name":"L'Esquisse","url":"https://restaurant.michelin.fr/9tr3fvt/lesquisse-annecy","nbStar":1,"postalCode":"74000","chef":"Stéphane Dattrino"},{"name":"La Ribaudière","url":"https://restaurant.michelin.fr/29o99va/la-ribaudiere-bourg-charente","nbStar":1,"postalCode":"16200","chef":"Thierry Verrat"},{"name":"L'Essentiel","url":"https://restaurant.michelin.fr/2dwdwxo/lessentiel-perigueux","nbStar":1,"postalCode":"24000","chef":"Eric Vidal"},{"name":"Brikéténia","url":"https://restaurant.michelin.fr/2es4wcd/briketenia-guethary","nbStar":1,"postalCode":"64210","chef":"Martin et David Ibarboure"},{"name":"Auberge du Vert Mont","url":"https://restaurant.michelin.fr/13ppe4f4/auberge-du-vert-mont-boeschepe","nbStar":1,"postalCode":"59299","chef":"Florent Ladeyn"},{"name":"Un Parfum de Gourmandise","url":"https://restaurant.michelin.fr/p47009z/un-parfum-de-gourmandise-perigueux","nbStar":1,"postalCode":"24000","chef":"Sébastien Riou"},{"name":"Auberge de l'Abbaye","url":"https://restaurant.michelin.fr/2dnoa2o/auberge-de-labbaye-ambronay","nbStar":1,"postalCode":"01500","chef":"Ivan Lavaux"},{"name":"Hervé Busset","url":"https://restaurant.michelin.fr/2brjniu/herve-busset-conques-en-rouergue","nbStar":1,"postalCode":"12320","chef":"Hervé Busset"},{"name":"Le Favre d'Anne","url":"https://restaurant.michelin.fr/dekdkvvj/le-favre-danne-angers","nbStar":1,"postalCode":"49000","chef":"Pascal Favre d'Anne"},{"name":"Le Camélia","url":"https://restaurant.michelin.fr/2agf0d1/le-camelia-bougival","nbStar":1,"postalCode":"78380","chef":"Thierry Conte"},{"name":"Le Village","url":"https://restaurant.michelin.fr/2ahm97s/le-village-marly-le-roi","nbStar":1,"postalCode":"78160","chef":"Tomohiro Uido"},{"name":"La Table d'Eugène","url":"https://restaurant.michelin.fr/2et2alx/la-table-deugene-paris-18","nbStar":1,"postalCode":"75018","chef":"Geoffroy Maillard"},{"name":"L'Amphitryon","url":"https://restaurant.michelin.fr/29saut6/lamphitryon-lorient","nbStar":1,"postalCode":"56100","chef":"Olivier Beurné"},{"name":"Le Bon Accueil","url":"https://restaurant.michelin.fr/29v2jed/le-bon-accueil-malbuisson","nbStar":1,"postalCode":"25160","chef":"Marc Faivre"},{"name":"La Rastègue","url":"https://restaurant.michelin.fr/2dfjaik/la-rastegue-bormes-les-mimosas","nbStar":1,"postalCode":"83230","chef":"Jérôme Masson"},{"name":"Aux Terrasses","url":"https://restaurant.michelin.fr/2b44str/aux-terrasses-tournus","nbStar":1,"postalCode":"71700","chef":"Jean-Michel Carrette"},{"name":"Le Foch","url":"https://restaurant.michelin.fr/2anjd1l/le-foch-reims","nbStar":1,"postalCode":"51100","chef":"Jacky Louazé"},{"name":"Auberge du Dun","url":"https://restaurant.michelin.fr/28z3n7r/auberge-du-dun-le-bourg-dun","nbStar":1,"postalCode":"76740","chef":"Pierre Chrétien"},{"name":"La Marande","url":"https://restaurant.michelin.fr/2dcnkds/la-marande-mirande","nbStar":1,"postalCode":"71260","chef":"Philippe Michel"},{"name":"Auberge St-Jean","url":"https://restaurant.michelin.fr/2athka8/auberge-st-jean-saint-jean-de-blaignac","nbStar":1,"postalCode":"33420","chef":"Thomas L'Hérisson"},{"name":"Vieux Pont","url":"https://restaurant.michelin.fr/28vap07/vieux-pont-belcastel","nbStar":1,"postalCode":"12390","chef":"Nicole Fagegaltier et Bruno Rouquier"},{"name":"Le Belvédère","url":"https://restaurant.michelin.fr/2d4rcim/le-belvedere-bozouls","nbStar":1,"postalCode":"12340","chef":"Guillaume Viala"},{"name":"David Toutain","url":"https://restaurant.michelin.fr/2ei5hub/david-toutain-paris-07","nbStar":2,"postalCode":"75007","chef":""},{"name":"L'Atlantide 1874 - Maison Guého","url":"https://restaurant.michelin.fr/2a32200/latlantide-1874-maison-gueho-nantes","nbStar":1,"postalCode":"44100","chef":"Jean-Yves Guého"},{"name":"Le Pily","url":"https://restaurant.michelin.fr/2eh8fjc/le-pily-cherbourg-en-cotentin","nbStar":1,"postalCode":"50100","chef":"Pierre Marion"},{"name":"Château du Mont Joly","url":"https://restaurant.michelin.fr/2ejhn11/chateau-du-mont-joly-sampans","nbStar":1,"postalCode":"39100","chef":"Romuald Fassenet"},{"name":"Étincelles - La Gentilhommière","url":"https://restaurant.michelin.fr/2ejolq7/etincelles-la-gentilhommiere-sainte-sabine","nbStar":1,"postalCode":"24440","chef":"Vincent Lucas"},{"name":"La Table des Cordeliers","url":"https://restaurant.michelin.fr/2d7x1hk/la-table-des-cordeliers-condom","nbStar":1,"postalCode":"32100","chef":"Éric Sampietro"},{"name":"1741","url":"https://restaurant.michelin.fr/amv21i8/1741-strasbourg","nbStar":1,"postalCode":"67000","chef":""},{"name":"Le Prieuré","url":"https://restaurant.michelin.fr/28od0rp/le-prieure-ambierle","nbStar":1,"postalCode":"42820","chef":"Thierry Fernandes"},{"name":"Mon Plaisir","url":"https://restaurant.michelin.fr/2d6m1yv/mon-plaisir-chamesol","nbStar":1,"postalCode":"25190","chef":"Christian Pilloud"},{"name":"Au 14 Février","url":"https://restaurant.michelin.fr/2f8f1gn/au-14-fevrier-lyon-05","nbStar":1,"postalCode":"69005","chef":"Tsuyoshi Arai"},{"name":"Côté Jardin","url":"https://restaurant.michelin.fr/29jyv6a/cote-jardin-gien","nbStar":1,"postalCode":"45500","chef":"Arnaud Billard"},{"name":"Jérémy Galvan","url":"https://restaurant.michelin.fr/3plxd2e/jeremy-galvan-lyon-05","nbStar":1,"postalCode":"69005","chef":"Jérémy Galvan"},{"name":"Lulu Rouget","url":"https://restaurant.michelin.fr/5kf1f62/lulu-rouget-nantes","nbStar":1,"postalCode":"44000","chef":"Ludovic Pouzelgues"},{"name":"Il Cortile","url":"https://restaurant.michelin.fr/2dcdnms/il-cortile-mulhouse","nbStar":1,"postalCode":"68100","chef":"Jean-Michel Feger"},{"name":"La Ville Blanche","url":"https://restaurant.michelin.fr/29pm63n/la-ville-blanche-la-ville-blanche","nbStar":1,"postalCode":"22300","chef":"Jean-Yves Jaguin"},{"name":"Lou Cigalon - Maison Martin","url":"https://restaurant.michelin.fr/41vsxiz/lou-cigalon-maison-martin-valbonne","nbStar":1,"postalCode":"06560","chef":"Christophe Martin"},{"name":"Hostellerie de la Pointe St-Mathieu","url":"https://restaurant.michelin.fr/2brleio/hostellerie-de-la-pointe-st-mathieu-le-conquet","nbStar":1,"postalCode":"29217","chef":"Nolwenn Corre"},{"name":"La Robe","url":"https://restaurant.michelin.fr/3ffqpazw/la-robe-montaigu","nbStar":1,"postalCode":"85600","chef":"Xavier Giraudet"},{"name":"Château Blanchard","url":"https://restaurant.michelin.fr/ou4s65x/chateau-blanchard-chazelles-sur-lyon","nbStar":1,"postalCode":"42140","chef":"Sylvain Roux"},{"name":"Villa de l'Étang Blanc","url":"https://restaurant.michelin.fr/2dtglr4/villa-de-letang-blanc-seignosse","nbStar":1,"postalCode":"40510","chef":"David Sulpice"},{"name":"Le Cerf","url":"https://restaurant.michelin.fr/2c74pw3/le-cerf-marlenheim","nbStar":1,"postalCode":"67520","chef":"Michel Husser et Joël Philipps"},{"name":"À Contre Sens","url":"https://restaurant.michelin.fr/3wc5nsy/contre-sens-caen","nbStar":1,"postalCode":"14000","chef":"Anthony Caillot"},{"name":"La Carambole","url":"https://restaurant.michelin.fr/3zm7yv8/la-carambole-schiltigheim","nbStar":1,"postalCode":"67300","chef":""},{"name":"Abri","url":"https://restaurant.michelin.fr/mfh3jse/abri-paris-10","nbStar":1,"postalCode":"75010","chef":"Katsuaki Okiyama"},{"name":"Table - Bruno Verjus","url":"https://restaurant.michelin.fr/3ffvej5j/table-bruno-verjus-paris-12","nbStar":1,"postalCode":"75012","chef":""},{"name":"Auberge Le Prieuré","url":"https://restaurant.michelin.fr/2dl7htu/auberge-le-prieure-moirax","nbStar":1,"postalCode":"47310","chef":"Benjamin Toursel"},{"name":"L'Éveil des Sens","url":"https://restaurant.michelin.fr/2f77d7t/leveil-des-sens-mayenne","nbStar":1,"postalCode":"53100","chef":"Nicolas Nobis"},{"name":"Le Moulin des Quatre Saisons","url":"https://restaurant.michelin.fr/29hrl09/le-moulin-des-quatre-saisons-la-fleche","nbStar":1,"postalCode":"72200","chef":"Camille Constantin"},{"name":"ES","url":"https://restaurant.michelin.fr/27ym5i25/es-paris-07","nbStar":1,"postalCode":"75007","chef":"Takayuki Honjo"},{"name":"Au 14 Février","url":"https://restaurant.michelin.fr/3ffziwd6/au-14-fevrier-platre-durand","nbStar":2,"postalCode":"71570","chef":"Masafumi Hamano"},{"name":"Le Sérac","url":"https://restaurant.michelin.fr/2di661r/le-serac-saint-gervais-les-bains","nbStar":1,"postalCode":"74170","chef":"Raphaël Le Mancq"},{"name":"L'Alchémille","url":"https://restaurant.michelin.fr/ua3c2rxf/lalchemille-kaysersberg-vignoble","nbStar":1,"postalCode":"68240","chef":"Jérôme Jaegle"},{"name":"Haut Bonheur de la Table","url":"https://restaurant.michelin.fr/6274yuk/haut-bonheur-de-la-table-cassel","nbStar":1,"postalCode":"59670","chef":"Eugène Hobraiche"},{"name":"Val d'Auge","url":"https://restaurant.michelin.fr/29rcoot/val-dauge-bondues","nbStar":1,"postalCode":"59910","chef":"Christophe Hagnerelle"},{"name":"L'Orée de la Forêt","url":"https://restaurant.michelin.fr/297c2t4/loree-de-la-foret-etouy","nbStar":1,"postalCode":"60600","chef":"Nicolas Leclercq"},{"name":"Yam'Tcha","url":"https://restaurant.michelin.fr/2ewldde/yamtcha-paris-01","nbStar":1,"postalCode":"75001","chef":"Adeline Grattard"},{"name":"La Bonne Auberge","url":"https://restaurant.michelin.fr/29ifnwu/la-bonne-auberge-stiring-wendel","nbStar":1,"postalCode":"57350","chef":"Lydia Egloff"},{"name":"Les Pyrénées","url":"https://restaurant.michelin.fr/2cqrobi/les-pyrenees-saint-jean-pied-de-port","nbStar":1,"postalCode":"64220","chef":"Philippe Arrambide"},{"name":"Saturne","url":"https://restaurant.michelin.fr/2fe4uol/saturne-paris-02","nbStar":1,"postalCode":"75002","chef":"Sven Chartier"},{"name":"Ambroisie","url":"https://restaurant.michelin.fr/2b416ek/ambroisie-saint-didier-de-la-tour","nbStar":1,"postalCode":"38110","chef":"André Taormina"},{"name":"Château de la Treyne","url":"https://restaurant.michelin.fr/2c38ubh/chateau-de-la-treyne-lacave","nbStar":1,"postalCode":"46200","chef":"Stéphane Andrieux"},{"name":"Intuition","url":"https://restaurant.michelin.fr/3ffxvs0j/intuition-saint-lo","nbStar":1,"postalCode":"50000","chef":"Mickaël Marion"},{"name":"Le Neuvième Art","url":"https://restaurant.michelin.fr/6pz7edt2/le-neuvieme-art-lyon-06","nbStar":2,"postalCode":"69006","chef":"Christophe Roure"},{"name":"Les Tables de Gaspard","url":"https://restaurant.michelin.fr/2duw4bw/les-tables-de-gaspard-saint-crepin","nbStar":1,"postalCode":"05600","chef":"Sébastien Corniau"},{"name":"Le Brouillarta","url":"https://restaurant.michelin.fr/2atl5nc/le-brouillarta-saint-jean-de-luz","nbStar":1,"postalCode":"64500","chef":"Guillaume Roget"},{"name":"Le Montgomerie","url":"https://restaurant.michelin.fr/29b4lr4/le-montgomerie-courchevel-1850","nbStar":2,"postalCode":"73120","chef":"Gatien Demczyna"},{"name":"Le Château de Sable","url":"https://restaurant.michelin.fr/2nnu14s6/le-chateau-de-sable-porspoder","nbStar":1,"postalCode":"29840","chef":""},{"name":"Laurent","url":"https://restaurant.michelin.fr/2abdvpo/laurent-paris-08","nbStar":1,"postalCode":"75008","chef":""},{"name":"Transparence - La Table de Patrick Fréchin","url":"https://restaurant.michelin.fr/2jtf0iqj/transparence-la-table-de-patrick-frechin-nancy","nbStar":1,"postalCode":"54000","chef":""},{"name":"Auberge St-Walfrid","url":"https://restaurant.michelin.fr/2ayc9n6/auberge-st-walfrid-sarreguemines","nbStar":1,"postalCode":"57200","chef":"Stephan Schneider"},{"name":"L'O des Vignes","url":"https://restaurant.michelin.fr/3fa7ojh3/lo-des-vignes-fuisse","nbStar":1,"postalCode":"71960","chef":"Sébastien Chambru"},{"name":"Allium","url":"https://restaurant.michelin.fr/suqhhtor/allium-quimper","nbStar":1,"postalCode":"29000","chef":"Lionel Hénaff"},{"name":"Le Pot d'Étain","url":"https://restaurant.michelin.fr/28vc6i9/le-pot-detain-danjoutin","nbStar":1,"postalCode":"90400","chef":"Philippe Zeiger"},{"name":"L'Hysope","url":"https://restaurant.michelin.fr/hq8ezzf7/lhysope-la-jarrie","nbStar":1,"postalCode":"17220","chef":"Nicolas  Durif"},{"name":"Clovis","url":"https://restaurant.michelin.fr/2evgb1v/clovis-tourrettes-sur-loup","nbStar":1,"postalCode":"06140","chef":"Julien Bousseau"},{"name":"Les Genêts","url":"https://restaurant.michelin.fr/3ws5njk2/les-genets-brem-sur-mer","nbStar":1,"postalCode":"85470","chef":"Nicolas Coutand"},{"name":"Le St-Martin","url":"https://restaurant.michelin.fr/29zciea/le-st-martin-montbeliard","nbStar":1,"postalCode":"25200","chef":"Olivier Prévôt-Carme"},{"name":"L'Océan","url":"https://restaurant.michelin.fr/szxhgy9t/locean-saint-jean-de-luz","nbStar":1,"postalCode":"64500","chef":"Alexandre Soulier"},{"name":"Baumanière 1850","url":"https://restaurant.michelin.fr/2f4vonu/baumaniere-1850-courchevel-1850","nbStar":1,"postalCode":"73120","chef":"Glenn Viel"},{"name":"Côté Cuisine","url":"https://restaurant.michelin.fr/mhm4jdd/cote-cuisine-carnac","nbStar":1,"postalCode":"56340","chef":"Laëtitia et Stéphane Cosnier"},{"name":"Pages","url":"https://restaurant.michelin.fr/9idrgh03/pages-paris-16","nbStar":1,"postalCode":"75016","chef":"Ryuji Teshima"},{"name":"La Marine","url":"https://restaurant.michelin.fr/2bgh04f/la-marine-carteret","nbStar":1,"postalCode":"50270","chef":"Damien Goguet"},{"name":"Rodolphe","url":"https://restaurant.michelin.fr/j9cof0s1/rodolphe-rouen","nbStar":1,"postalCode":"76000","chef":"Rodolphe Pottier"},{"name":"SEPT","url":"https://restaurant.michelin.fr/2b38wht/sept-toulouse","nbStar":1,"postalCode":"31000","chef":"Guillaume Momboisse"},{"name":"Le Roc Alto","url":"https://restaurant.michelin.fr/8xdk7lc4/le-roc-alto-saint-veran","nbStar":1,"postalCode":"05350","chef":"Alexandre Lechêne"},{"name":"La Vieille Tour","url":"https://restaurant.michelin.fr/2arxchk/la-vieille-tour-plerin","nbStar":1,"postalCode":"22190","chef":"Nicolas Adam"},{"name":"Le Clos St-Pierre","url":"https://restaurant.michelin.fr/2aqst5c/le-clos-st-pierre-saint-pons","nbStar":1,"postalCode":"06650","chef":"Daniel Ettlinger"},{"name":"Le Pousse-Pied","url":"https://restaurant.michelin.fr/376ocf6f/le-pousse-pied-la-tranche-sur-mer","nbStar":1,"postalCode":"85360","chef":"Anthony Lumet"},{"name":"Garopapilles","url":"https://restaurant.michelin.fr/3wsi04j3/garopapilles-bordeaux","nbStar":1,"postalCode":"33000","chef":"Tanguy Laviale"},{"name":"Auberge du Paradis","url":"https://restaurant.michelin.fr/2armsjm/auberge-du-paradis-platre-durand","nbStar":1,"postalCode":"71570","chef":"Cyril Laugier"},{"name":"Le Pavillon","url":"https://restaurant.michelin.fr/2b3t8kh/le-pavillon-le-touquet-paris-plage","nbStar":1,"postalCode":"62520","chef":"William Elliott"},{"name":"Racine","url":"https://restaurant.michelin.fr/eiak4cnv/racine-reims","nbStar":1,"postalCode":"51100","chef":"Kazuyuki Tanaka"},{"name":"Frenchie","url":"https://restaurant.michelin.fr/2f44u91/frenchie-paris-02","nbStar":1,"postalCode":"75002","chef":"Gregory Marchand"},{"name":"Château de Vauchoux","url":"https://restaurant.michelin.fr/2alwjjs/chateau-de-vauchoux-vauchoux","nbStar":1,"postalCode":"70170","chef":"Jean-Michel Turin"},{"name":"Palégrié","url":"https://restaurant.michelin.fr/2d2itah0/palegrie-correncon-en-vercors","nbStar":1,"postalCode":"38250","chef":"Guillaume Monjuré"},{"name":"Pertinence","url":"https://restaurant.michelin.fr/5sermc3/pertinence-paris-07","nbStar":1,"postalCode":"75007","chef":"Kwen Liew et Ryunosuke Naito"},{"name":"Le Chateaubriand","url":"https://restaurant.michelin.fr/2e6jtym/le-chateaubriand-paris-11","nbStar":1,"postalCode":"75011","chef":"Inaki Aizpitarte"},{"name":"Jérôme Feck","url":"https://restaurant.michelin.fr/294k5c0/jerome-feck-chalons-en-champagne","nbStar":1,"postalCode":"51000","chef":""},{"name":"Racines","url":"https://restaurant.michelin.fr/3rs0bg1/racines-rennes","nbStar":1,"postalCode":"35000","chef":""},{"name":"La Table","url":"https://restaurant.michelin.fr/ua271jkd/la-table-lille","nbStar":1,"postalCode":"59000","chef":"Thibaut Gamba"},{"name":"Quinsou","url":"https://restaurant.michelin.fr/a22cmkwd/quinsou-paris-06","nbStar":1,"postalCode":"75006","chef":"Antonin Bonnet"},{"name":"Ken Kawasaki","url":"https://restaurant.michelin.fr/ximkypex/ken-kawasaki-paris-18","nbStar":1,"postalCode":"75018","chef":""},{"name":"Le Skiff Club","url":"https://restaurant.michelin.fr/2851256/le-skiff-club-la-teste-de-buch","nbStar":1,"postalCode":"33260","chef":"Stéphane Carrade"},{"name":"Akrame","url":"https://restaurant.michelin.fr/2851396/akrame-paris-08","nbStar":1,"postalCode":"75008","chef":"Akrame Benallal"},{"name":"Le Grand Cap","url":"https://restaurant.michelin.fr/2851511/le-grand-cap-leucate","nbStar":1,"postalCode":"11370","chef":"Erwan Houssin"},{"name":"Restaurant H","url":"https://restaurant.michelin.fr/2851556/restaurant-h-paris-04","nbStar":1,"postalCode":"75004","chef":"Hubert Duchenne"},{"name":"Sushi B","url":"https://restaurant.michelin.fr/2852091/sushi-b-paris-02","nbStar":1,"postalCode":"75002","chef":""},{"name":"Tomy & Co","url":"https://restaurant.michelin.fr/2852136/tomy-co-paris-07","nbStar":1,"postalCode":"75007","chef":"Tomy Gousset"},{"name":"La Tour des Sens","url":"https://restaurant.michelin.fr/2dr8ble/la-tour-des-sens-tencin","nbStar":1,"postalCode":"38570","chef":"Jérémie Izarn"},{"name":"La Merise","url":"https://restaurant.michelin.fr/3614676/la-merise-laubach","nbStar":1,"postalCode":"67580","chef":"Cédric Deckert"},{"name":"Jean Chauvel","url":"https://restaurant.michelin.fr/3614956/jean-chauvel-boulogne-billancourt","nbStar":1,"postalCode":"92100","chef":"Jean Chauvel"},{"name":"Montée","url":"https://restaurant.michelin.fr/3615586/montee-paris-14","nbStar":1,"postalCode":"75014","chef":"Takayuki Nameura"},{"name":"Auberge Quintessence","url":"https://restaurant.michelin.fr/3615836/auberge-quintessence-roubion","nbStar":1,"postalCode":"06420","chef":"Christophe Billau"},{"name":"L'Auberge de Bagatelle","url":"https://restaurant.michelin.fr/3616226/lauberge-de-bagatelle-le-mans","nbStar":1,"postalCode":"72000","chef":"Jean-Sébastien Monné"},{"name":"L'Or Q'idée","url":"https://restaurant.michelin.fr/3616391/lor-qidee-pontoise","nbStar":1,"postalCode":"95000","chef":"Naoëlle d'Hainaut"},{"name":"Ima","url":"https://restaurant.michelin.fr/3616751/ima-rennes","nbStar":1,"postalCode":"35000","chef":"Julien Lemarié"},{"name":"Comice","url":"https://restaurant.michelin.fr/3616836/comice-paris-16","nbStar":1,"postalCode":"75016","chef":"Noam Gedalof"},{"name":"La Table d'Hôtes - Le Quatrième Mur","url":"https://restaurant.michelin.fr/3623606/la-table-dhotes-le-quatrieme-mur-bordeaux","nbStar":1,"postalCode":"33000","chef":"Philippe Etchebest"},{"name":"La Table de la Ferme","url":"https://restaurant.michelin.fr/3623651/la-table-de-la-ferme-sartene","nbStar":1,"postalCode":"20100","chef":""},{"name":"Jean Sulpice","url":"https://restaurant.michelin.fr/3636676/jean-sulpice-talloires-montmin","nbStar":2,"postalCode":"74290","chef":"Jean Sulpice"},{"name":"La Table d'à Côté","url":"https://restaurant.michelin.fr/4022946/la-table-da-cote-ardon","nbStar":1,"postalCode":"45160","chef":"Aurélien Largeau"},{"name":"Maison Aribert","url":"https://restaurant.michelin.fr/4023881/maison-aribert-saint-martin-duriage","nbStar":2,"postalCode":"38410","chef":"Christophe Aribert"},{"name":"L'Évidence","url":"https://restaurant.michelin.fr/4024611/levidence-montbazon","nbStar":1,"postalCode":"37250","chef":"Gaëtan Evrard"},{"name":"La Terrasse","url":"https://restaurant.michelin.fr/4025851/la-terrasse-saint-raphael","nbStar":1,"postalCode":"83700","chef":"José  Bailly"},{"name":"La Source","url":"https://restaurant.michelin.fr/4025941/la-source-saint-galmier","nbStar":1,"postalCode":"42330","chef":"Antoine Bergeron"},{"name":"Lait Thym Sel","url":"https://restaurant.michelin.fr/4027706/lait-thym-sel-angers","nbStar":1,"postalCode":"49000","chef":"Gaëtan Morvan"},{"name":"L'Ours","url":"https://restaurant.michelin.fr/4030051/lours-vincennes","nbStar":1,"postalCode":"94300","chef":"Jacky Ribault"},{"name":"Racines","url":"https://restaurant.michelin.fr/4031571/racines-paris-02","nbStar":1,"postalCode":"75002","chef":"Simone Tondo"},{"name":"L'Abysse au Pavillon Ledoyen","url":"https://restaurant.michelin.fr/4033636/labysse-au-pavillon-ledoyen-paris-08","nbStar":1,"postalCode":"75008","chef":""},{"name":"Le Royal","url":"https://restaurant.michelin.fr/4033846/le-royal-champillon","nbStar":1,"postalCode":"51160","chef":""},{"name":"Pilgrim","url":"https://restaurant.michelin.fr/4033946/pilgrim-paris-15","nbStar":1,"postalCode":"75015","chef":"Saito Terumitsu"},{"name":"Les Funambules","url":"https://restaurant.michelin.fr/4035231/les-funambules-strasbourg","nbStar":1,"postalCode":"67000","chef":""},{"name":"Rozo","url":"https://restaurant.michelin.fr/4036171/rozo-lille","nbStar":1,"postalCode":"59000","chef":"Camille Pailleau et Diego Delbecq"},{"name":"Accents Table Bourse","url":"https://restaurant.michelin.fr/4036951/accents-table-bourse-paris-02","nbStar":1,"postalCode":"75002","chef":"Ayumi Sugiyama et  Romain Mahi"},{"name":"La Sommelière","url":"https://restaurant.michelin.fr/4037936/la-sommeliere-lyon-05","nbStar":1,"postalCode":"69005","chef":""},{"name":"Restaurant de Tourrel","url":"https://restaurant.michelin.fr/4038001/restaurant-de-tourrel-saint-remy-de-provence","nbStar":1,"postalCode":"13210","chef":"Jérémy  Scalia"},{"name":"L'Orchidée","url":"https://restaurant.michelin.fr/4039781/lorchidee-altkirch","nbStar":1,"postalCode":"68130","chef":"Chatchai Klanklong"},{"name":"L'Aspérule","url":"https://restaurant.michelin.fr/4040011/lasperule-dijon","nbStar":1,"postalCode":"21000","chef":"Keigo Kimura"},{"name":"Sarkara","url":"https://restaurant.michelin.fr/4040361/sarkara-courchevel-1850","nbStar":1,"postalCode":"73120","chef":"Sébastien Vauxion"},{"name":"Äponem - Auberge du Presbytère","url":"https://restaurant.michelin.fr/4040591/aponem-auberge-du-presbytere-vailhan","nbStar":1,"postalCode":"34320","chef":"Amélie Darvas"},{"name":"NESO","url":"https://restaurant.michelin.fr/4041136/neso-paris-09","nbStar":1,"postalCode":"75009","chef":"Guillaume Sanchez"},{"name":"Restaurant De Lauzun","url":"https://restaurant.michelin.fr/4041396/restaurant-de-lauzun-pezenas","nbStar":1,"postalCode":"34120","chef":""},{"name":"The Marcel","url":"https://restaurant.michelin.fr/4041601/marcel-sete","nbStar":1,"postalCode":"34200","chef":"Fabien Fage"},{"name":"La Poule au Pot","url":"https://restaurant.michelin.fr/4042311/la-poule-au-pot-paris-01","nbStar":1,"postalCode":"75001","chef":""},{"name":"Saisons","url":"https://restaurant.michelin.fr/2852226/saisons-marseille-06","nbStar":1,"postalCode":"13006","chef":"Julien Diaz"},{"name":"Nature","url":"https://restaurant.michelin.fr/4024971/nature-armentieres","nbStar":1,"postalCode":"59280","chef":"Nicolas Gautier"}]